{"type":"FeatureCollection","features":[{"type":"Feature","properties":{"id":"appellation-petit-chablis","kind":"appellation","level":"village","name":"Petit Chablis","region":"chablis","village":"petit-chablis"},"geometry":{"type":"MultiPolygon","coordinates":[[[[3.8899,47.7828],[3.8964,47.7864],[3.8991,47.7865],[3.9024,47.7878],[3.9093,47.7884],[3.9098,47.7901],[3.9228,47.7896],[3.9241,47.7842],[3.9235,47.7831],[3.9203,47.7827],[3.9184,47.7833],[3.9161,47.7814],[3.913,47.7825],[3.9118,47.7819],[3.9084,47.7841],[3.9051,47.7828],[3.9047,47.7836],[3.9033,47.7836],[3.9029,47.7807],[3.9001,47.7821],[3.9026,47.7845],[3.9019,47.7853],[3.8899,47.7828]],[[3.9034,47.785],[3.9049,47.7843],[3.9062,47.7845],[3.9063,47.7862],[3.9034,47.7859],[3.9034,47.785]]],[[[3.8877,47.8122],[3.8898,47.8122],[3.8958,47.8116],[3.8928,47.8103],[3.889,47.81],[3.8877,47.8122]]],[[[3.8812,47.7804],[3.8847,47.7815],[3.8869,47.7797],[3.891,47.7802],[3.8913,47.779],[3.8885,47.7782],[3.8871,47.7787],[3.8837,47.7784],[3.882,47.779],[3.8812,47.7804]]],[[[3.86,47.8079],[3.8644,47.8102],[3.8703,47.8107],[3.8633,47.8091],[3.8601,47.8067],[3.86,47.8079]]],[[[3.8495,47.7907],[3.8501,47.7924],[3.8562,47.7908],[3.8593,47.7906],[3.8585,47.7896],[3.8519,47.7899],[3.8495,47.7907]]],[[[3.8402,47.7708],[3.8409,47.7715],[3.8432,47.7705],[3.8452,47.7711],[3.8466,47.7703],[3.847,47.7682],[3.848,47.7678],[3.8458,47.7655],[3.8488,47.7637],[3.8467,47.7625],[3.8439,47.7644],[3.8446,47.7682],[3.8432,47.7684],[3.8426,47.7703],[3.8402,47.7708]]],[[[3.8308,47.833],[3.8383,47.8329],[3.8403,47.8334],[3.8414,47.8347],[3.8429,47.8347],[3.8436,47.8331],[3.8419,47.8313],[3.844,47.8304],[3.8399,47.8281],[3.8405,47.8271],[3.8383,47.825],[3.839,47.8239],[3.8378,47.8233],[3.8378,47.8217],[3.839,47.8203],[3.8381,47.8188],[3.8355,47.8195],[3.8343,47.8184],[3.8319,47.8183],[3.8326,47.8213],[3.8366,47.8228],[3.8362,47.8238],[3.8382,47.8247],[3.8366,47.8261],[3.8377,47.8272],[3.836,47.8279],[3.8359,47.8292],[3.8347,47.8291],[3.8318,47.8306],[3.8308,47.833]]],[[[3.7941,47.832],[3.7971,47.8333],[3.7964,47.8341],[3.7976,47.8348],[3.7977,47.8338],[3.7993,47.8342],[3.7995,47.8351],[3.7983,47.8353],[3.8077,47.8426],[3.8077,47.8436],[3.8053,47.843],[3.8059,47.844],[3.8044,47.8441],[3.8022,47.8455],[3.8015,47.8453],[3.8012,47.8448],[3.8012,47.8448],[3.8008,47.8444],[3.8008,47.8444],[3.8008,47.8443],[3.8006,47.8442],[3.8004,47.8441],[3.8004,47.8441],[3.7997,47.8437],[3.8028,47.8473],[3.8038,47.848],[3.8047,47.8486],[3.8047,47.8486],[3.8058,47.8491],[3.8056,47.8484],[3.8066,47.8481],[3.8055,47.8476],[3.8055,47.8484],[3.8043,47.8483],[3.8043,47.8475],[3.8054,47.8474],[3.8043,47.8463],[3.8056,47.8451],[3.8079,47.8449],[3.8092,47.8462],[3.8091,47.848],[3.8103,47.8472],[3.8122,47.8482],[3.8125,47.8469],[3.811,47.8462],[3.8106,47.8469],[3.8095,47.8466],[3.8098,47.8459],[3.8108,47.846],[3.8093,47.8433],[3.8137,47.841],[3.8125,47.8409],[3.8123,47.8401],[3.8107,47.8404],[3.8108,47.8418],[3.8085,47.8423],[3.8049,47.839],[3.8049,47.838],[3.8062,47.8368],[3.8023,47.8364],[3.8022,47.8355],[3.7985,47.8337],[3.7983,47.833],[3.7957,47.8318],[3.7941,47.832]]],[[[3.8159,47.8399],[3.8143,47.8408],[3.8174,47.8405],[3.8188,47.8397],[3.8202,47.84],[3.8201,47.841],[3.822,47.8425],[3.8218,47.8432],[3.8259,47.8419],[3.8297,47.8436],[3.8308,47.8433],[3.8266,47.8389],[3.8284,47.8374],[3.8248,47.8349],[3.8213,47.8302],[3.8192,47.831],[3.8177,47.8299],[3.8163,47.8271],[3.8151,47.8209],[3.813,47.8204],[3.8101,47.8209],[3.8088,47.8219],[3.8097,47.8241],[3.8065,47.8245],[3.8083,47.8272],[3.8079,47.8279],[3.8034,47.8261],[3.7998,47.8263],[3.7993,47.8277],[3.8047,47.8319],[3.8064,47.8311],[3.8064,47.8303],[3.8083,47.8295],[3.8135,47.8315],[3.8153,47.8316],[3.8177,47.8335],[3.8193,47.834],[3.8227,47.8381],[3.8199,47.8384],[3.8176,47.8402],[3.8159,47.8399]]],[[[3.8173,47.8455],[3.8135,47.8473],[3.8144,47.8484],[3.8131,47.8489],[3.8123,47.8485],[3.8114,47.8492],[3.8112,47.8509],[3.8103,47.8513],[3.811,47.8517],[3.8127,47.8512],[3.813,47.8519],[3.8119,47.8526],[3.8146,47.8543],[3.8202,47.8554],[3.8202,47.8539],[3.8221,47.8527],[3.8208,47.8526],[3.8142,47.8494],[3.814,47.8487],[3.8172,47.8481],[3.8201,47.8499],[3.8219,47.8495],[3.8217,47.8505],[3.8247,47.8516],[3.8255,47.8507],[3.8211,47.8492],[3.8193,47.8487],[3.8172,47.8472],[3.8173,47.8455]]],[[[3.7968,47.8375],[3.7954,47.8364],[3.7946,47.8366],[3.7959,47.8385],[3.7957,47.8376],[3.7968,47.8375]]],[[[3.8282,47.8534],[3.8297,47.853],[3.8324,47.8522],[3.8339,47.8514],[3.8287,47.8509],[3.8293,47.8528],[3.8282,47.8534]]],[[[3.8215,47.7914],[3.8224,47.7941],[3.8234,47.794],[3.8257,47.7953],[3.8298,47.7924],[3.8283,47.7917],[3.8274,47.7901],[3.8284,47.7894],[3.8271,47.7887],[3.8257,47.7886],[3.8239,47.7903],[3.8215,47.7914]]],[[[3.7765,47.8769],[3.7774,47.8776],[3.7786,47.8764],[3.7775,47.876],[3.7765,47.8769]]],[[[3.7793,47.8761],[3.7811,47.8769],[3.7819,47.876],[3.783,47.8762],[3.7816,47.8788],[3.78,47.8786],[3.7789,47.8792],[3.7828,47.8833],[3.7869,47.8839],[3.7874,47.8851],[3.7963,47.885],[3.802,47.883],[3.801,47.8779],[3.796,47.8775],[3.7969,47.881],[3.798,47.8815],[3.7967,47.8837],[3.7932,47.8837],[3.7884,47.8817],[3.7868,47.8828],[3.7853,47.8817],[3.7864,47.8803],[3.7881,47.8812],[3.7909,47.8775],[3.7908,47.8757],[3.7941,47.8754],[3.7941,47.8738],[3.7951,47.8731],[3.7941,47.8723],[3.792,47.8734],[3.788,47.8717],[3.7864,47.8727],[3.7828,47.8716],[3.7815,47.8729],[3.7839,47.8738],[3.7838,47.8749],[3.7806,47.8753],[3.7793,47.8761]]],[[[3.7818,47.86],[3.7831,47.8603],[3.7832,47.861],[3.7877,47.8615],[3.7883,47.8605],[3.7892,47.8604],[3.7918,47.8613],[3.7916,47.8629],[3.7986,47.8619],[3.7981,47.8598],[3.7921,47.8609],[3.7872,47.8592],[3.7823,47.8587],[3.7818,47.86]]],[[[3.7897,47.8277],[3.7925,47.8287],[3.7936,47.8272],[3.7908,47.8262],[3.7897,47.8277]]],[[[3.7827,47.8661],[3.7831,47.868],[3.7854,47.8682],[3.7855,47.8668],[3.7894,47.8651],[3.7888,47.8633],[3.7871,47.8636],[3.7827,47.8661]]],[[[3.775,47.7839],[3.7756,47.7853],[3.7781,47.786],[3.7812,47.7885],[3.7814,47.7903],[3.7837,47.7902],[3.7807,47.7837],[3.7783,47.7832],[3.775,47.7839]]],[[[3.7627,47.7598],[3.7658,47.7624],[3.7693,47.7627],[3.7727,47.7638],[3.7773,47.7676],[3.7778,47.764],[3.7821,47.7639],[3.7837,47.7633],[3.782,47.7616],[3.7777,47.7607],[3.7627,47.7598]]],[[[3.7659,47.881],[3.7661,47.8818],[3.7711,47.8819],[3.7709,47.8811],[3.7659,47.881]]],[[[3.7712,47.8826],[3.7709,47.8844],[3.7805,47.8849],[3.7804,47.8842],[3.7788,47.8835],[3.7712,47.8826]]],[[[3.7619,47.8182],[3.7624,47.8192],[3.767,47.8207],[3.7671,47.8193],[3.7654,47.8175],[3.7619,47.8182]]],[[[3.7439,47.7806],[3.744,47.7814],[3.7476,47.7829],[3.7533,47.7864],[3.7524,47.788],[3.7566,47.7902],[3.7563,47.7912],[3.7588,47.7929],[3.7621,47.7932],[3.7656,47.7923],[3.766,47.7919],[3.7632,47.7905],[3.7602,47.7877],[3.7566,47.7863],[3.7545,47.7863],[3.754,47.7845],[3.7518,47.783],[3.746,47.7809],[3.7439,47.7806]]],[[[3.7596,47.7937],[3.7551,47.7957],[3.7586,47.7993],[3.7605,47.7978],[3.7588,47.7967],[3.7609,47.7951],[3.7595,47.7944],[3.7596,47.7937]]],[[[3.7481,47.8108],[3.7546,47.8194],[3.7563,47.8202],[3.7589,47.8196],[3.7591,47.8183],[3.7538,47.8145],[3.7491,47.81],[3.7481,47.8108]]],[[[3.737,47.844],[3.7399,47.8461],[3.7438,47.8439],[3.7463,47.8433],[3.7493,47.8437],[3.7507,47.8423],[3.7551,47.8411],[3.7508,47.8381],[3.7529,47.835],[3.7522,47.8339],[3.7535,47.832],[3.7572,47.8302],[3.7546,47.83],[3.7515,47.8312],[3.7491,47.8302],[3.7449,47.8323],[3.7444,47.8327],[3.746,47.834],[3.743,47.8372],[3.7494,47.8384],[3.7499,47.8391],[3.7476,47.8417],[3.744,47.8427],[3.7407,47.8426],[3.737,47.844]]],[[[3.714,47.8507],[3.7231,47.8579],[3.7265,47.8616],[3.7295,47.8634],[3.7282,47.8649],[3.7268,47.8645],[3.7252,47.8652],[3.7313,47.8725],[3.735,47.88],[3.7459,47.8792],[3.7458,47.8776],[3.7438,47.8778],[3.7428,47.8768],[3.7443,47.8746],[3.738,47.8679],[3.7384,47.867],[3.7374,47.8672],[3.7366,47.8665],[3.7341,47.8663],[3.7323,47.8653],[3.7341,47.864],[3.739,47.8654],[3.7398,47.8625],[3.7389,47.8618],[3.74,47.861],[3.7386,47.8593],[3.7411,47.8579],[3.7401,47.8579],[3.737,47.8555],[3.7369,47.8536],[3.7404,47.8498],[3.7422,47.8495],[3.7426,47.8508],[3.7448,47.8507],[3.7446,47.8468],[3.7421,47.8481],[3.7411,47.8478],[3.7382,47.8486],[3.7342,47.8524],[3.7283,47.849],[3.7266,47.8508],[3.7289,47.8534],[3.7276,47.8543],[3.7244,47.8528],[3.7229,47.8512],[3.7218,47.8518],[3.7157,47.85],[3.714,47.8507]],[[3.7336,47.8586],[3.7349,47.8583],[3.7385,47.8607],[3.7388,47.8617],[3.737,47.863],[3.7331,47.8627],[3.7354,47.8603],[3.7334,47.8594],[3.7336,47.8586]],[[3.7284,47.8561],[3.7289,47.8553],[3.7323,47.8546],[3.7326,47.8534],[3.7349,47.8541],[3.7354,47.8552],[3.7348,47.8563],[3.7326,47.8569],[3.7315,47.8582],[3.7284,47.8561]]],[[[3.7225,47.7971],[3.7241,47.7969],[3.7249,47.7994],[3.7311,47.8029],[3.7369,47.8111],[3.7397,47.8182],[3.7409,47.819],[3.7462,47.8195],[3.7465,47.8182],[3.7414,47.8129],[3.7363,47.8054],[3.7358,47.8024],[3.7367,47.7988],[3.7349,47.7974],[3.7362,47.7927],[3.7379,47.7916],[3.7375,47.7904],[3.7385,47.7902],[3.7399,47.791],[3.7423,47.7898],[3.7426,47.786],[3.7374,47.7869],[3.736,47.7863],[3.7349,47.7878],[3.7262,47.7891],[3.7262,47.7946],[3.7245,47.7948],[3.7245,47.7957],[3.723,47.796],[3.7225,47.7971]]],[[[3.6986,47.8162],[3.7028,47.8216],[3.7016,47.8236],[3.7099,47.8288],[3.7124,47.8278],[3.7139,47.8281],[3.7154,47.8271],[3.7206,47.8296],[3.7298,47.8312],[3.7317,47.831],[3.7321,47.8294],[3.7342,47.8277],[3.7358,47.828],[3.7381,47.827],[3.7418,47.8267],[3.7414,47.8256],[3.739,47.8261],[3.7306,47.8231],[3.7272,47.8242],[3.7249,47.8233],[3.7229,47.8252],[3.7219,47.8252],[3.721,47.8246],[3.721,47.822],[3.7197,47.8215],[3.7193,47.8226],[3.7154,47.8224],[3.716,47.8215],[3.7172,47.8214],[3.7186,47.8194],[3.7129,47.8179],[3.7119,47.8163],[3.7076,47.8135],[3.7059,47.8157],[3.7046,47.8162],[3.7037,47.8161],[3.7037,47.8151],[3.7024,47.8144],[3.6986,47.8162]],[[3.7202,47.8257],[3.7211,47.8267],[3.7204,47.8278],[3.7176,47.8273],[3.7186,47.8259],[3.7202,47.8257]],[[3.7064,47.8235],[3.706,47.8214],[3.7074,47.8202],[3.7142,47.8232],[3.7114,47.8247],[3.712,47.8261],[3.7107,47.8265],[3.7064,47.8235]]],[[[3.7327,47.8316],[3.7319,47.8332],[3.7279,47.8326],[3.7297,47.834],[3.7385,47.8348],[3.7401,47.836],[3.741,47.8339],[3.7401,47.8329],[3.7418,47.8298],[3.7383,47.8296],[3.7327,47.8316]]],[[[3.7196,47.8431],[3.7202,47.8434],[3.722,47.8423],[3.724,47.8392],[3.7249,47.8392],[3.7256,47.8402],[3.7269,47.84],[3.7267,47.8389],[3.7282,47.8381],[3.7325,47.8382],[3.7322,47.8377],[3.7247,47.8363],[3.7231,47.8374],[3.7196,47.8431]]],[[[3.6925,47.8127],[3.6947,47.8138],[3.6934,47.8161],[3.6938,47.8172],[3.6962,47.8167],[3.6978,47.8148],[3.7007,47.8134],[3.6971,47.8122],[3.6977,47.8109],[3.7023,47.8118],[3.7032,47.8125],[3.7049,47.812],[3.7051,47.8113],[3.7032,47.8101],[3.7037,47.8094],[3.7055,47.8095],[3.7074,47.8106],[3.7086,47.8107],[3.709,47.8101],[3.7105,47.8099],[3.7143,47.8106],[3.7125,47.8092],[3.7139,47.8081],[3.7202,47.8115],[3.7228,47.8081],[3.7229,47.8054],[3.7247,47.8044],[3.7216,47.8023],[3.7202,47.802],[3.7187,47.8031],[3.7153,47.801],[3.7136,47.803],[3.7122,47.8035],[3.7059,47.7998],[3.7062,47.8013],[3.7012,47.8051],[3.7012,47.8077],[3.697,47.8071],[3.6973,47.8078],[3.6954,47.8115],[3.6938,47.8115],[3.6925,47.8127]],[[3.7007,47.8086],[3.7018,47.808],[3.7026,47.8091],[3.7015,47.8094],[3.7007,47.8086]]]]}},{"type":"Feature","properties":{"id":"appellation-chablis","kind":"appellation","level":"village","name":"Chablis","region":"chablis","village":"chablis"},"geometry":{"type":"MultiPolygon","coordinates":[[[[3.9027,47.8128],[3.9054,47.8141],[3.9075,47.8139],[3.9082,47.813],[3.9096,47.8127],[3.9141,47.8133],[3.9155,47.8127],[3.9199,47.813],[3.9257,47.8083],[3.9205,47.8054],[3.9131,47.8043],[3.9065,47.8082],[3.9027,47.8128]]],[[[3.9054,47.7968],[3.9073,47.7987],[3.9106,47.8005],[3.9112,47.8021],[3.914,47.8025],[3.9149,47.802],[3.9177,47.8022],[3.9192,47.8018],[3.9222,47.8029],[3.9241,47.8007],[3.9214,47.7984],[3.9167,47.7966],[3.9155,47.7948],[3.91,47.7954],[3.9078,47.7965],[3.9054,47.7968]]],[[[3.7707,47.8609],[3.7758,47.8556],[3.7821,47.8517],[3.7823,47.8508],[3.78,47.8487],[3.7803,47.8474],[3.7819,47.8465],[3.7847,47.8472],[3.7839,47.8428],[3.7869,47.8395],[3.7894,47.8388],[3.7891,47.8377],[3.7907,47.8366],[3.7921,47.8371],[3.7941,47.84],[3.7952,47.8401],[3.7961,47.8421],[3.8004,47.8441],[3.8016,47.8456],[3.8047,47.8451],[3.8037,47.848],[3.811,47.8517],[3.8115,47.8498],[3.8133,47.8495],[3.8147,47.8497],[3.8214,47.8529],[3.8223,47.8528],[3.8257,47.8539],[3.8296,47.853],[3.8288,47.8509],[3.8246,47.8505],[3.816,47.8469],[3.8161,47.8462],[3.8187,47.8445],[3.8225,47.8432],[3.8205,47.841],[3.821,47.8401],[3.8185,47.8396],[3.8172,47.8403],[3.8151,47.8395],[3.8106,47.8404],[3.8083,47.8383],[3.8099,47.8355],[3.8087,47.8354],[3.8054,47.8367],[3.7979,47.8307],[3.7984,47.83],[3.8013,47.8305],[3.8023,47.8297],[3.7994,47.8276],[3.7997,47.8265],[3.8012,47.8262],[3.8051,47.8264],[3.8071,47.8286],[3.8097,47.8293],[3.807,47.8248],[3.8076,47.8243],[3.8102,47.8242],[3.8089,47.8221],[3.8096,47.8212],[3.8136,47.8205],[3.8162,47.8216],[3.8171,47.8229],[3.816,47.8238],[3.8163,47.8268],[3.8181,47.8303],[3.8191,47.8313],[3.8246,47.8294],[3.8259,47.8322],[3.8289,47.8352],[3.8278,47.8365],[3.8322,47.8383],[3.8329,47.8379],[3.8302,47.8364],[3.8308,47.8351],[3.8299,47.8335],[3.8308,47.833],[3.8318,47.8308],[3.8341,47.8294],[3.8363,47.8291],[3.8359,47.8278],[3.8347,47.8281],[3.8335,47.8274],[3.8262,47.828],[3.8266,47.8268],[3.8253,47.8259],[3.8234,47.8189],[3.8247,47.8184],[3.8322,47.8242],[3.8367,47.8261],[3.8385,47.8244],[3.8373,47.8239],[3.8377,47.823],[3.8346,47.8223],[3.8319,47.821],[3.8323,47.8185],[3.8306,47.8177],[3.8299,47.8143],[3.8311,47.8133],[3.8348,47.8134],[3.8374,47.8148],[3.8385,47.8168],[3.8428,47.8202],[3.8426,47.8211],[3.8403,47.8218],[3.8405,47.8223],[3.843,47.8219],[3.8439,47.8223],[3.8429,47.8271],[3.845,47.8263],[3.8475,47.8231],[3.85,47.8235],[3.8519,47.8226],[3.8544,47.8248],[3.8542,47.8267],[3.8561,47.8264],[3.858,47.828],[3.8552,47.8313],[3.8556,47.8322],[3.8568,47.8325],[3.859,47.8315],[3.8636,47.8323],[3.8652,47.831],[3.862,47.8299],[3.8616,47.8288],[3.8624,47.8277],[3.8668,47.8266],[3.8693,47.8245],[3.8758,47.8242],[3.869,47.8237],[3.8657,47.826],[3.8638,47.8262],[3.8637,47.8251],[3.8588,47.8219],[3.8584,47.8194],[3.8661,47.8185],[3.8696,47.8191],[3.8704,47.8187],[3.874,47.8205],[3.8793,47.8212],[3.8795,47.8204],[3.877,47.8181],[3.8806,47.8178],[3.8822,47.8158],[3.8816,47.8146],[3.879,47.8129],[3.8761,47.8127],[3.8717,47.8136],[3.8711,47.8124],[3.8645,47.8119],[3.8597,47.8105],[3.8587,47.8095],[3.8601,47.8074],[3.8612,47.8073],[3.8632,47.809],[3.8655,47.8099],[3.8703,47.8107],[3.8704,47.8092],[3.8737,47.8083],[3.8742,47.8073],[3.8734,47.8066],[3.8741,47.8056],[3.8754,47.8055],[3.878,47.8073],[3.8807,47.8057],[3.8822,47.8082],[3.8812,47.8094],[3.8842,47.8104],[3.8854,47.8116],[3.8876,47.812],[3.8894,47.8102],[3.8925,47.8104],[3.8971,47.8116],[3.896,47.8106],[3.897,47.8099],[3.8985,47.8108],[3.8983,47.8116],[3.8995,47.8127],[3.9033,47.81],[3.9025,47.809],[3.9043,47.8077],[3.9031,47.8059],[3.9054,47.8051],[3.9068,47.8062],[3.9078,47.8056],[3.9083,47.8049],[3.9075,47.8023],[3.9022,47.8002],[3.9011,47.801],[3.9011,47.803],[3.9,47.8033],[3.8987,47.8009],[3.8991,47.7997],[3.8973,47.7988],[3.896,47.8004],[3.8945,47.8006],[3.8918,47.7995],[3.8914,47.7986],[3.8884,47.7981],[3.886,47.7966],[3.8835,47.7963],[3.8828,47.7972],[3.8832,47.8006],[3.8825,47.801],[3.8791,47.8007],[3.8786,47.7999],[3.8727,47.7993],[3.8701,47.797],[3.8675,47.7993],[3.8656,47.7991],[3.8645,47.7986],[3.8646,47.7976],[3.8668,47.7949],[3.8678,47.7922],[3.8594,47.7906],[3.8562,47.7908],[3.848,47.7929],[3.8424,47.7978],[3.8412,47.7978],[3.8391,47.8005],[3.8372,47.8004],[3.8366,47.8019],[3.8392,47.8059],[3.8425,47.8072],[3.846,47.8102],[3.8466,47.8126],[3.8543,47.8184],[3.8541,47.8196],[3.8531,47.8197],[3.8479,47.8168],[3.843,47.8126],[3.8405,47.8115],[3.8414,47.8102],[3.8402,47.8089],[3.8371,47.8078],[3.8325,47.8075],[3.8313,47.8063],[3.8186,47.8112],[3.8129,47.8118],[3.8099,47.8156],[3.8011,47.8219],[3.7986,47.8229],[3.7899,47.8237],[3.7879,47.8249],[3.7934,47.8269],[3.7917,47.8297],[3.7942,47.8312],[3.7941,47.832],[3.797,47.8332],[3.797,47.834],[3.7874,47.8331],[3.7867,47.8336],[3.7828,47.8339],[3.779,47.8331],[3.7782,47.8351],[3.7794,47.8358],[3.7778,47.843],[3.7707,47.859],[3.7707,47.8609]],[[3.8872,47.8009],[3.8885,47.7999],[3.8904,47.8007],[3.8893,47.8022],[3.8872,47.8009]],[[3.8612,47.8149],[3.8633,47.8146],[3.8641,47.8152],[3.8618,47.8157],[3.8612,47.8149]],[[3.8167,47.8262],[3.8183,47.8255],[3.8199,47.8262],[3.8202,47.8272],[3.8186,47.8279],[3.8172,47.8277],[3.8167,47.8262]],[[3.8122,47.8481],[3.8128,47.8472],[3.8145,47.8481],[3.8131,47.8489],[3.8122,47.8481]]],[[[3.8679,47.7843],[3.8691,47.7873],[3.8721,47.7885],[3.8738,47.7875],[3.8767,47.7881],[3.8777,47.7869],[3.8864,47.7873],[3.8903,47.7828],[3.8982,47.7841],[3.9063,47.7865],[3.9068,47.7847],[3.9052,47.7842],[3.9027,47.7846],[3.8996,47.7817],[3.8992,47.7798],[3.8974,47.7806],[3.8955,47.7801],[3.8939,47.7805],[3.8922,47.7787],[3.8906,47.7801],[3.886,47.7796],[3.8845,47.7813],[3.8773,47.78],[3.8741,47.7805],[3.8727,47.7799],[3.8711,47.78],[3.8721,47.7823],[3.8741,47.7829],[3.8743,47.7836],[3.8727,47.7841],[3.8697,47.7831],[3.8679,47.7843]]],[[[3.8243,47.771],[3.8266,47.7744],[3.8287,47.7758],[3.8333,47.7767],[3.835,47.7779],[3.8383,47.7784],[3.8397,47.7775],[3.8394,47.7765],[3.8417,47.7745],[3.839,47.7738],[3.8388,47.7714],[3.8325,47.7704],[3.8267,47.7684],[3.8243,47.771]]],[[[3.8059,47.7926],[3.8075,47.7942],[3.8069,47.7953],[3.8082,47.7975],[3.8125,47.7977],[3.8188,47.7962],[3.8227,47.7966],[3.8216,47.7916],[3.8246,47.7902],[3.8257,47.7888],[3.8284,47.789],[3.829,47.7886],[3.8284,47.7876],[3.8295,47.7865],[3.8274,47.7842],[3.8244,47.7823],[3.8234,47.7819],[3.8219,47.7825],[3.8203,47.7813],[3.8157,47.7807],[3.8136,47.7814],[3.8123,47.7828],[3.8129,47.784],[3.8118,47.7844],[3.8096,47.7872],[3.8095,47.7892],[3.8082,47.7894],[3.8059,47.7926]]],[[[3.7838,47.8711],[3.7843,47.8721],[3.7863,47.8729],[3.7861,47.874],[3.7873,47.8746],[3.7868,47.8759],[3.7896,47.8745],[3.7871,47.8729],[3.7877,47.872],[3.7921,47.8736],[3.7945,47.8719],[3.7968,47.8717],[3.7979,47.8695],[3.7948,47.8684],[3.7926,47.8685],[3.7838,47.8711]]],[[[3.706,47.8225],[3.7066,47.8239],[3.7127,47.8277],[3.7117,47.8248],[3.7165,47.8226],[3.7209,47.8225],[3.7214,47.8253],[3.7226,47.8257],[3.7246,47.8235],[3.7285,47.8249],[3.7286,47.8235],[3.7302,47.823],[3.7325,47.8234],[3.7358,47.8252],[3.7393,47.8263],[3.7415,47.826],[3.7417,47.8268],[3.7391,47.8276],[3.7393,47.8283],[3.7428,47.8282],[3.7434,47.8288],[3.7428,47.8297],[3.7446,47.8298],[3.7476,47.8316],[3.7492,47.8303],[3.7515,47.8313],[3.7545,47.83],[3.7587,47.8301],[3.7589,47.8311],[3.7553,47.832],[3.7533,47.8336],[3.7539,47.8341],[3.7587,47.8319],[3.7616,47.8323],[3.7637,47.8336],[3.7646,47.8333],[3.7659,47.8336],[3.7658,47.8358],[3.7645,47.8378],[3.7591,47.837],[3.7577,47.8376],[3.7525,47.8352],[3.7507,47.8383],[3.755,47.8406],[3.7536,47.8416],[3.7541,47.8425],[3.7534,47.8429],[3.7562,47.8483],[3.7561,47.8497],[3.7588,47.851],[3.7594,47.8526],[3.7588,47.8532],[3.7569,47.8526],[3.7515,47.8537],[3.7472,47.8522],[3.7448,47.8504],[3.7431,47.8506],[3.7424,47.8479],[3.7369,47.8441],[3.732,47.8461],[3.7282,47.8488],[3.7343,47.8526],[3.7382,47.8487],[3.7413,47.8481],[3.7419,47.8492],[3.7389,47.8508],[3.7364,47.8548],[3.7406,47.8589],[3.742,47.8585],[3.7437,47.8594],[3.7439,47.8603],[3.7453,47.8604],[3.7467,47.8632],[3.7483,47.8639],[3.7534,47.8644],[3.7542,47.8595],[3.7556,47.8586],[3.7568,47.86],[3.7652,47.8475],[3.7642,47.8451],[3.7684,47.8323],[3.771,47.8269],[3.7695,47.8259],[3.7559,47.8261],[3.7476,47.825],[3.7449,47.824],[3.7379,47.8228],[3.7338,47.8203],[3.7307,47.8192],[3.7233,47.8196],[3.7199,47.8213],[3.7184,47.8202],[3.7201,47.8179],[3.7217,47.8183],[3.7235,47.8174],[3.7266,47.8181],[3.7322,47.8177],[3.736,47.8182],[3.7385,47.8203],[3.7476,47.8215],[3.7497,47.821],[3.7516,47.8224],[3.7544,47.8231],[3.7707,47.8235],[3.7707,47.8219],[3.7726,47.8215],[3.7729,47.8197],[3.7696,47.8164],[3.7705,47.8144],[3.7734,47.8134],[3.7754,47.8145],[3.7778,47.8131],[3.7802,47.8133],[3.7795,47.8122],[3.7808,47.8116],[3.7825,47.8116],[3.7832,47.8123],[3.7877,47.8121],[3.7877,47.8111],[3.7909,47.8101],[3.7899,47.8087],[3.7909,47.8077],[3.79,47.8066],[3.7913,47.8064],[3.7938,47.8047],[3.7912,47.8017],[3.7868,47.7982],[3.784,47.793],[3.7815,47.7913],[3.7812,47.7885],[3.778,47.786],[3.7757,47.7851],[3.775,47.7839],[3.7723,47.7851],[3.7702,47.7852],[3.7696,47.7846],[3.7705,47.7836],[3.7796,47.782],[3.7783,47.781],[3.7789,47.7802],[3.7815,47.7807],[3.7849,47.7851],[3.7881,47.795],[3.7899,47.7958],[3.7907,47.7973],[3.793,47.7991],[3.7923,47.7965],[3.7936,47.7957],[3.7919,47.7938],[3.7944,47.7928],[3.7934,47.7896],[3.7951,47.7867],[3.7947,47.7849],[3.7959,47.7841],[3.7847,47.7737],[3.7836,47.7736],[3.7804,47.7703],[3.7777,47.7687],[3.7738,47.7645],[3.7695,47.7628],[3.766,47.7626],[3.7642,47.7615],[3.7624,47.759],[3.7629,47.7569],[3.7644,47.7566],[3.7648,47.7543],[3.7608,47.7573],[3.7597,47.7569],[3.7481,47.7583],[3.7477,47.7593],[3.7454,47.7593],[3.7446,47.7601],[3.7426,47.7598],[3.7418,47.7608],[3.7399,47.7606],[3.7407,47.7622],[3.7399,47.7629],[3.7417,47.7651],[3.7384,47.7664],[3.7421,47.7685],[3.7474,47.7697],[3.7473,47.771],[3.7432,47.7718],[3.7427,47.7744],[3.743,47.7753],[3.7453,47.776],[3.7449,47.7774],[3.7473,47.7791],[3.7476,47.7804],[3.746,47.7811],[3.7517,47.7829],[3.7548,47.7866],[3.7564,47.7865],[3.7596,47.7874],[3.7645,47.7912],[3.7641,47.7923],[3.7621,47.7931],[3.7588,47.7929],[3.76,47.795],[3.7578,47.797],[3.7586,47.7976],[3.7605,47.7969],[3.7664,47.7998],[3.7679,47.8021],[3.7734,47.806],[3.7732,47.8066],[3.7712,47.8072],[3.7681,47.8065],[3.7662,47.8056],[3.7642,47.8034],[3.7631,47.8034],[3.7625,47.8027],[3.7606,47.8028],[3.7587,47.8048],[3.7621,47.8086],[3.7626,47.8109],[3.754,47.8106],[3.7544,47.8114],[3.7594,47.8138],[3.7585,47.8151],[3.7613,47.8169],[3.7619,47.8182],[3.7656,47.8178],[3.7671,47.8193],[3.767,47.8206],[3.7657,47.821],[3.7591,47.8196],[3.7557,47.8201],[3.7483,47.811],[3.7498,47.8087],[3.7438,47.8056],[3.7441,47.8047],[3.7416,47.8036],[3.7408,47.8023],[3.7398,47.8038],[3.74,47.8054],[3.7386,47.8054],[3.7379,47.8015],[3.7391,47.8005],[3.7375,47.7991],[3.7382,47.7964],[3.7368,47.7945],[3.7377,47.794],[3.7393,47.7947],[3.7408,47.7932],[3.7379,47.7902],[3.7371,47.7904],[3.7374,47.7916],[3.7357,47.7926],[3.7368,47.7939],[3.7352,47.7947],[3.7348,47.7974],[3.7369,47.7994],[3.7358,47.8025],[3.7362,47.8055],[3.7465,47.8191],[3.744,47.8195],[3.7399,47.8184],[3.738,47.8131],[3.7341,47.8066],[3.735,47.8058],[3.7334,47.806],[3.7307,47.8025],[3.7272,47.8009],[3.7245,47.7987],[3.7237,47.7961],[3.7251,47.795],[3.7265,47.795],[3.7258,47.7932],[3.7266,47.7924],[3.7262,47.7891],[3.7225,47.7921],[3.7215,47.7968],[3.7223,47.7973],[3.722,47.799],[3.7199,47.8009],[3.7204,47.8021],[3.7237,47.8034],[3.7227,47.8083],[3.7198,47.8112],[3.7136,47.8078],[3.7124,47.8092],[3.7124,47.8103],[3.7081,47.8101],[3.7084,47.8129],[3.7077,47.8135],[3.712,47.8163],[3.7131,47.8179],[3.718,47.8192],[3.7179,47.8206],[3.714,47.8226],[3.7071,47.8202],[3.706,47.8225]],[[3.751,47.7757],[3.7517,47.7737],[3.7531,47.7737],[3.7546,47.7724],[3.7561,47.7726],[3.7567,47.7735],[3.755,47.7759],[3.7581,47.7757],[3.761,47.7767],[3.7626,47.775],[3.7713,47.7763],[3.7734,47.7772],[3.7745,47.7769],[3.775,47.7776],[3.7697,47.7785],[3.7545,47.7774],[3.751,47.7757]],[[3.7604,47.7848],[3.76,47.784],[3.7613,47.7835],[3.7642,47.7842],[3.7636,47.7849],[3.7604,47.7848]],[[3.7477,47.8144],[3.7481,47.8152],[3.7471,47.8156],[3.7462,47.8145],[3.7477,47.8144]],[[3.7439,47.8109],[3.7401,47.8071],[3.7406,47.8064],[3.7415,47.8066],[3.745,47.8099],[3.7439,47.8109]]],[[[3.7209,47.8257],[3.7179,47.8263],[3.7171,47.826],[3.7164,47.8265],[3.7185,47.8277],[3.7221,47.8285],[3.7224,47.8278],[3.7211,47.827],[3.7209,47.8257]]],[[[3.7683,47.8654],[3.7691,47.8666],[3.774,47.8664],[3.776,47.8683],[3.7829,47.866],[3.7873,47.8634],[3.7916,47.8629],[3.792,47.8613],[3.7885,47.8601],[3.7876,47.8613],[3.7857,47.8613],[3.7822,47.86],[3.7823,47.8587],[3.7772,47.8577],[3.7758,47.8586],[3.7752,47.8603],[3.7713,47.8622],[3.7683,47.8654]]],[[[3.7788,47.8835],[3.7805,47.8849],[3.7874,47.8851],[3.787,47.8833],[3.7885,47.8817],[3.7867,47.8799],[3.7848,47.8816],[3.786,47.8827],[3.7856,47.8838],[3.7788,47.8835]]],[[[3.7658,47.8808],[3.777,47.8816],[3.7777,47.8803],[3.7754,47.8778],[3.7772,47.8763],[3.7786,47.8767],[3.7803,47.8754],[3.7836,47.8754],[3.784,47.8746],[3.7759,47.872],[3.7703,47.8729],[3.7695,47.874],[3.7669,47.8734],[3.7658,47.8808]]],[[[3.7643,47.8947],[3.7659,47.8972],[3.7679,47.8972],[3.7719,47.8944],[3.7756,47.8954],[3.7764,47.8961],[3.7777,47.8932],[3.7719,47.8913],[3.7676,47.8915],[3.7643,47.8947]]],[[[3.728,47.8563],[3.735,47.8601],[3.7326,47.8627],[3.7329,47.8645],[3.732,47.8654],[3.7366,47.8665],[3.7406,47.8711],[3.7417,47.8713],[3.7441,47.8746],[3.7427,47.8769],[3.7433,47.8778],[3.746,47.8784],[3.7451,47.8828],[3.7494,47.8834],[3.7499,47.8797],[3.7487,47.8794],[3.7486,47.8779],[3.7524,47.8708],[3.7507,47.8699],[3.7497,47.8706],[3.7483,47.8702],[3.748,47.8675],[3.7456,47.867],[3.7456,47.8663],[3.7426,47.8641],[3.7403,47.8653],[3.7348,47.8641],[3.7348,47.8631],[3.7373,47.8631],[3.7376,47.8622],[3.7393,47.8616],[3.7371,47.8594],[3.7342,47.8579],[3.7335,47.8585],[3.7322,47.8582],[3.7325,47.857],[3.734,47.8563],[3.7323,47.8546],[3.7285,47.8553],[3.728,47.8563]],[[3.7434,47.8692],[3.7441,47.8684],[3.7458,47.8693],[3.7447,47.8699],[3.7434,47.8692]]],[[[3.7254,47.8306],[3.7277,47.8326],[3.7321,47.8333],[3.7326,47.8323],[3.7315,47.8312],[3.7265,47.8303],[3.7254,47.8306]]],[[[3.716,47.85],[3.7222,47.852],[3.7235,47.8516],[3.7244,47.853],[3.7273,47.8545],[3.7293,47.8535],[3.7281,47.8526],[3.7281,47.8515],[3.7261,47.8506],[3.7264,47.8494],[3.7217,47.8496],[3.7209,47.8503],[3.717,47.8494],[3.716,47.85]]],[[[3.7223,47.8446],[3.7259,47.8416],[3.7242,47.8385],[3.7221,47.8427],[3.7223,47.8446]]],[[[3.6914,47.819],[3.6974,47.8199],[3.7006,47.8198],[3.7004,47.8186],[3.697,47.8167],[3.6924,47.8177],[3.6914,47.819]]]]}},{"type":"Feature","properties":{"id":"grand-cru-chablis-grand-cru-les-clos","kind":"grand_cru","level":"grand-cru","name":"Les Clos","region":"chablis","village":"chablis"},"geometry":{"type":"Polygon","coordinates":[[[3.8039,47.8201],[3.8043,47.8214],[3.8064,47.8214],[3.8071,47.8221],[3.8125,47.8205],[3.8147,47.8207],[3.8096,47.8159],[3.8078,47.8167],[3.8039,47.8201]]]}},{"type":"Feature","properties":{"id":"grand-cru-chablis-grand-cru-vaudesir","kind":"grand_cru","level":"grand-cru","name":"Vaudésir","region":"chablis","village":"chablis"},"geometry":{"type":"Polygon","coordinates":[[[3.7974,47.825],[3.7994,47.8268],[3.8012,47.8261],[3.8041,47.8261],[3.8056,47.8267],[3.8066,47.8262],[3.8047,47.8237],[3.8002,47.8237],[3.799,47.8228],[3.7974,47.825]]]}},{"type":"Feature","properties":{"id":"grand-cru-chablis-grand-cru-bougros","kind":"grand_cru","level":"grand-cru","name":"Bougros","region":"chablis","village":"chablis"},"geometry":{"type":"Polygon","coordinates":[[[3.7879,47.8249],[3.7936,47.8269],[3.796,47.8239],[3.799,47.8228],[3.7899,47.8237],[3.7879,47.8249]]]}},{"type":"Feature","properties":{"id":"grand-cru-chablis-grand-cru-blanchot","kind":"grand_cru","level":"grand-cru","name":"Blanchot","region":"chablis","village":"chablis"},"geometry":{"type":"Polygon","coordinates":[[[3.8101,47.8159],[3.8164,47.8218],[3.8187,47.821],[3.8164,47.8185],[3.8101,47.8159]]]}},{"type":"Feature","properties":{"id":"grand-cru-chablis-grand-cru-preuses","kind":"grand_cru","level":"grand-cru","name":"Preuses","region":"chablis","village":"chablis"},"geometry":{"type":"Polygon","coordinates":[[[3.7938,47.8268],[3.7971,47.8281],[3.7981,47.8278],[3.7998,47.8284],[3.7994,47.8269],[3.7977,47.8252],[3.7985,47.8233],[3.7959,47.824],[3.7938,47.8268]]]}},{"type":"Feature","properties":{"id":"grand-cru-chablis-grand-cru-valmur","kind":"grand_cru","level":"grand-cru","name":"Valmur","region":"chablis","village":"chablis"},"geometry":{"type":"Polygon","coordinates":[[[3.8047,47.8239],[3.8059,47.8253],[3.8074,47.8244],[3.8102,47.8242],[3.8088,47.8219],[3.806,47.8212],[3.805,47.8217],[3.8047,47.8239]]]}},{"type":"Feature","properties":{"id":"grand-cru-chablis-grand-cru-grenouilles","kind":"grand_cru","level":"grand-cru","name":"Grenouilles","region":"chablis","village":"chablis"},"geometry":{"type":"Polygon","coordinates":[[[3.799,47.8228],[3.8001,47.8239],[3.8047,47.8237],[3.805,47.8218],[3.8039,47.8202],[3.799,47.8228]]]}},{"type":"Feature","properties":{"id":"appellation-beaune","kind":"appellation","level":"village","name":"Beaune","region":"cote-de-beaune","village":null},"geometry":{"type":"MultiPolygon","coordinates":[[[[4.8411,47.0327],[4.8414,47.0355],[4.8421,47.0356],[4.8448,47.0347],[4.8422,47.0324],[4.8411,47.0327]]],[[[4.7934,47.0248],[4.7972,47.0231],[4.8002,47.0229],[4.801,47.0218],[4.8021,47.0219],[4.8032,47.0236],[4.8026,47.0243],[4.8033,47.0255],[4.8059,47.0265],[4.8005,47.03],[4.8045,47.0295],[4.807,47.03],[4.8079,47.0308],[4.8065,47.0316],[4.8071,47.0331],[4.8089,47.0342],[4.8102,47.0359],[4.8146,47.0341],[4.8141,47.0334],[4.8108,47.0338],[4.8103,47.0331],[4.8113,47.0323],[4.8148,47.0321],[4.8163,47.0325],[4.8169,47.0313],[4.8185,47.0318],[4.8202,47.0375],[4.8214,47.0385],[4.8204,47.0398],[4.8209,47.0432],[4.8202,47.0441],[4.8216,47.0441],[4.8223,47.0452],[4.8254,47.0451],[4.8247,47.047],[4.8285,47.0504],[4.8293,47.0506],[4.8299,47.0495],[4.8335,47.0471],[4.839,47.0448],[4.8386,47.0435],[4.837,47.0436],[4.836,47.0421],[4.8332,47.0424],[4.833,47.0396],[4.8309,47.0392],[4.8301,47.0351],[4.8277,47.0351],[4.8275,47.034],[4.8292,47.0334],[4.8291,47.0325],[4.8276,47.0324],[4.8272,47.0318],[4.8295,47.029],[4.8285,47.0286],[4.8267,47.0288],[4.8262,47.028],[4.827,47.0267],[4.8302,47.0251],[4.8299,47.0247],[4.8276,47.0252],[4.8257,47.0239],[4.8274,47.0226],[4.8257,47.0218],[4.8246,47.02],[4.8266,47.0182],[4.8137,47.0133],[4.8079,47.0163],[4.806,47.016],[4.798,47.0214],[4.7953,47.0225],[4.7934,47.0248]]]]}},{"type":"Feature","properties":{"id":"appellation-meursault","kind":"appellation","level":"village","name":"Meursault","region":"cote-de-beaune","village":"meursault"},"geometry":{"type":"Polygon","coordinates":[[[4.7368,46.9609],[4.7401,46.9627],[4.7484,46.9646],[4.7506,46.9678],[4.7498,46.9684],[4.7504,46.9699],[4.7496,46.9703],[4.7508,46.9722],[4.7496,46.9782],[4.75,46.9794],[4.7569,46.9816],[4.7609,46.9852],[4.762,46.985],[4.7635,46.982],[4.7646,46.9817],[4.764,46.9805],[4.7645,46.9785],[4.7661,46.9783],[4.7668,46.9792],[4.7661,46.9807],[4.7678,46.9806],[4.7682,46.9784],[4.766,46.9771],[4.7667,46.9758],[4.7679,46.9757],[4.7688,46.9772],[4.7707,46.977],[4.7718,46.98],[4.7684,46.982],[4.7689,46.9836],[4.7679,46.984],[4.7666,46.9834],[4.7636,46.9853],[4.762,46.9872],[4.7623,46.9885],[4.7713,46.9885],[4.7751,46.9919],[4.7766,46.9909],[4.7826,46.9909],[4.7848,46.99],[4.7859,46.9891],[4.7849,46.988],[4.7827,46.9871],[4.7763,46.9802],[4.7745,46.9801],[4.7727,46.9775],[4.7739,46.9763],[4.7777,46.977],[4.7773,46.9757],[4.779,46.9749],[4.7781,46.9735],[4.7721,46.9751],[4.7678,46.9751],[4.7685,46.973],[4.7711,46.9737],[4.7748,46.972],[4.7686,46.9675],[4.7666,46.9687],[4.7656,46.9685],[4.7646,46.9664],[4.7596,46.9608],[4.7591,46.9592],[4.7615,46.9584],[4.7598,46.9557],[4.7552,46.9563],[4.7477,46.9585],[4.7458,46.9602],[4.7428,46.9603],[4.7406,46.9594],[4.7369,46.96],[4.7368,46.9609]],[[4.7683,46.9862],[4.7691,46.9857],[4.771,46.986],[4.7716,46.987],[4.7683,46.9872],[4.7683,46.9862]],[[4.7549,46.9704],[4.7562,46.9688],[4.7573,46.9687],[4.7596,46.9709],[4.76,46.9723],[4.7582,46.9723],[4.7572,46.9706],[4.7559,46.971],[4.7549,46.9704]],[[4.7555,46.9726],[4.7565,46.972],[4.7576,46.9724],[4.7588,46.9742],[4.7586,46.9751],[4.7573,46.9749],[4.7555,46.9726]],[[4.7473,46.9625],[4.7468,46.961],[4.7478,46.961],[4.7486,46.9621],[4.7507,46.9622],[4.7532,46.9634],[4.7533,46.964],[4.751,46.9645],[4.7485,46.9623],[4.7473,46.9625]]]}},{"type":"Feature","properties":{"id":"appellation-santenay","kind":"appellation","level":"village","name":"Santenay","region":"cote-de-beaune","village":null},"geometry":{"type":"Polygon","coordinates":[[[4.664,46.9135],[4.6691,46.9155],[4.6708,46.9156],[4.6717,46.9166],[4.6743,46.9163],[4.6763,46.9218],[4.6788,46.9219],[4.6791,46.9207],[4.6816,46.9206],[4.6838,46.9195],[4.6853,46.9196],[4.6865,46.9205],[4.6902,46.9196],[4.6924,46.9199],[4.6932,46.9191],[4.6957,46.9209],[4.6956,46.922],[4.6998,46.9229],[4.7012,46.9197],[4.7022,46.9194],[4.7032,46.9198],[4.7044,46.9228],[4.7067,46.9227],[4.7081,46.9248],[4.7098,46.9256],[4.7169,46.9217],[4.7183,46.92],[4.7211,46.9212],[4.7227,46.92],[4.7227,46.9166],[4.7212,46.9148],[4.7218,46.9137],[4.7141,46.9143],[4.7023,46.911],[4.6994,46.912],[4.6947,46.9156],[4.6937,46.9146],[4.6949,46.9141],[4.6952,46.9126],[4.6978,46.9116],[4.697,46.9103],[4.6948,46.9102],[4.6945,46.9087],[4.6913,46.9108],[4.6887,46.9095],[4.6889,46.9085],[4.6872,46.9077],[4.6832,46.9105],[4.6812,46.9096],[4.6815,46.9075],[4.6806,46.9078],[4.6795,46.9072],[4.6781,46.9077],[4.675,46.9054],[4.6718,46.9071],[4.6719,46.9111],[4.6686,46.9126],[4.666,46.912],[4.6641,46.9128],[4.664,46.9135]]]}},{"type":"Feature","properties":{"id":"appellation-savigny-les-beaune","kind":"appellation","level":"village","name":"Savigny-lès-Beaune","region":"cote-de-beaune","village":null},"geometry":{"type":"MultiPolygon","coordinates":[[[[4.819,47.0651],[4.82,47.0673],[4.822,47.0681],[4.8224,47.0699],[4.8248,47.0692],[4.8247,47.0684],[4.8258,47.0677],[4.8254,47.0661],[4.8281,47.0657],[4.8341,47.067],[4.8378,47.0656],[4.8409,47.0672],[4.8432,47.0702],[4.8466,47.0695],[4.8435,47.0664],[4.8431,47.065],[4.8443,47.0633],[4.848,47.0631],[4.8458,47.0589],[4.8498,47.0565],[4.8481,47.0534],[4.853,47.0509],[4.8523,47.0496],[4.854,47.0491],[4.849,47.0437],[4.848,47.0438],[4.8404,47.0512],[4.8393,47.0508],[4.8392,47.0455],[4.8327,47.0482],[4.8296,47.0565],[4.8238,47.0599],[4.8248,47.0601],[4.8298,47.0583],[4.8305,47.0595],[4.827,47.0612],[4.8253,47.0612],[4.8223,47.0623],[4.8218,47.0645],[4.8196,47.0645],[4.819,47.0651]],[[4.8376,47.0574],[4.8363,47.056],[4.839,47.054],[4.8389,47.0526],[4.8418,47.0529],[4.842,47.0536],[4.8391,47.0566],[4.8376,47.0574]]],[[[4.8032,47.0692],[4.8039,47.0709],[4.8077,47.0728],[4.811,47.0719],[4.8125,47.0728],[4.8145,47.073],[4.816,47.0706],[4.8178,47.0699],[4.8164,47.0663],[4.8143,47.0664],[4.8132,47.0651],[4.8125,47.0658],[4.8109,47.0657],[4.8047,47.068],[4.8032,47.0692]]]]}},{"type":"Feature","properties":{"id":"appellation-chassagne-montrachet","kind":"appellation","level":"village","name":"Chassagne-Montrachet","region":"cote-de-beaune","village":"chassagne-montrachet"},"geometry":{"type":"MultiPolygon","coordinates":[[[[4.7097,46.9257],[4.711,46.9264],[4.7135,46.9263],[4.7177,46.93],[4.7176,46.9286],[4.7191,46.9287],[4.7195,46.93],[4.7185,46.9317],[4.7211,46.9324],[4.722,46.9342],[4.7211,46.9348],[4.7198,46.9343],[4.7187,46.9355],[4.7193,46.9364],[4.7215,46.9371],[4.7225,46.9387],[4.724,46.9388],[4.7256,46.9407],[4.7228,46.9426],[4.7202,46.9406],[4.7199,46.9396],[4.7183,46.94],[4.7187,46.9423],[4.7209,46.9436],[4.7247,46.9442],[4.73,46.9434],[4.7317,46.9441],[4.7347,46.943],[4.737,46.9447],[4.7434,46.9422],[4.745,46.9424],[4.7446,46.9411],[4.7494,46.9396],[4.7486,46.9383],[4.7467,46.9386],[4.7446,46.938],[4.7429,46.9381],[4.7418,46.9361],[4.7426,46.9354],[4.7411,46.9337],[4.744,46.9315],[4.7436,46.9311],[4.7405,46.9322],[4.7379,46.9308],[4.7357,46.9275],[4.7338,46.9283],[4.7324,46.9271],[4.731,46.9272],[4.7316,46.9262],[4.7308,46.9251],[4.732,46.9236],[4.7271,46.9203],[4.7257,46.9207],[4.7233,46.9193],[4.721,46.921],[4.7185,46.9198],[4.7149,46.9231],[4.7097,46.9257]],[[4.7286,46.9381],[4.7295,46.9375],[4.731,46.9384],[4.7294,46.939],[4.7286,46.9381]],[[4.725,46.936],[4.7238,46.9347],[4.7249,46.9343],[4.726,46.9355],[4.725,46.936]]],[[[4.7357,46.945],[4.7343,46.9448],[4.7332,46.9451],[4.7339,46.9459],[4.7353,46.9459],[4.7357,46.945]]]]}},{"type":"Feature","properties":{"id":"appellation-pommard","kind":"appellation","level":"village","name":"Pommard","region":"cote-de-beaune","village":null},"geometry":{"type":"Polygon","coordinates":[[[4.7746,47.0234],[4.7775,47.0231],[4.7785,47.0213],[4.7797,47.0205],[4.781,47.0212],[4.7933,47.0188],[4.7953,47.0192],[4.7958,47.0205],[4.7977,47.0215],[4.8058,47.0161],[4.8077,47.0166],[4.8088,47.0156],[4.8134,47.0137],[4.813,47.0127],[4.8019,47.0036],[4.7986,46.9998],[4.7804,47.0069],[4.7806,47.0086],[4.7773,47.0099],[4.7793,47.0125],[4.7843,47.0115],[4.7858,47.0137],[4.7835,47.0146],[4.7842,47.017],[4.7757,47.02],[4.7746,47.0234]],[[4.7923,47.0114],[4.7938,47.0086],[4.7962,47.0084],[4.7958,47.0071],[4.7969,47.0067],[4.7983,47.0073],[4.7985,47.0081],[4.796,47.0103],[4.7934,47.0119],[4.7923,47.0114]]]}},{"type":"Feature","properties":{"id":"appellation-aloxe-corton","kind":"appellation","level":"village","name":"Aloxe-Corton","region":"cote-de-beaune","village":null},"geometry":{"type":"Polygon","coordinates":[[[4.8497,47.0727],[4.85,47.0751],[4.8523,47.0779],[4.8558,47.079],[4.8568,47.0782],[4.8552,47.0746],[4.8554,47.0734],[4.8565,47.0727],[4.8607,47.0739],[4.8666,47.0783],[4.8677,47.08],[4.87,47.0799],[4.8703,47.0815],[4.8731,47.0804],[4.8731,47.0793],[4.8746,47.0793],[4.8774,47.0778],[4.8767,47.0766],[4.878,47.0753],[4.8681,47.0653],[4.8672,47.065],[4.8591,47.056],[4.8527,47.0575],[4.853,47.0584],[4.8521,47.0588],[4.8535,47.0625],[4.8523,47.0677],[4.8497,47.0727]]]}},{"type":"Feature","properties":{"id":"appellation-volnay","kind":"appellation","level":"village","name":"Volnay","region":"cote-de-beaune","village":null},"geometry":{"type":"Polygon","coordinates":[[[4.7712,46.986],[4.7743,46.9886],[4.7756,46.9913],[4.7751,46.9919],[4.7758,46.993],[4.7737,46.9952],[4.7731,46.9972],[4.7758,46.9979],[4.7773,46.9995],[4.7767,47.0024],[4.7746,47.0038],[4.7749,47.0052],[4.7789,47.0054],[4.7806,47.0068],[4.7889,47.004],[4.7938,47.0017],[4.7949,47.0017],[4.7986,46.9998],[4.7972,46.9976],[4.7937,46.9939],[4.7916,46.9929],[4.7897,46.9902],[4.7883,46.9905],[4.7865,46.989],[4.7842,46.9898],[4.7836,46.9891],[4.7844,46.9885],[4.7834,46.9875],[4.7804,46.9887],[4.779,46.9877],[4.7768,46.9877],[4.7733,46.9853],[4.7712,46.986]],[[4.7801,47.0002],[4.7829,47.001],[4.7831,47.0018],[4.781,47.0022],[4.7797,47.0009],[4.7801,47.0002]]]}},{"type":"Feature","properties":{"id":"appellation-saint-aubin","kind":"appellation","level":"village","name":"Saint-Aubin","region":"cote-de-beaune","village":"saint-aubin"},"geometry":{"type":"Polygon","coordinates":[[[4.6879,46.9497],[4.688,46.9504],[4.6895,46.9504],[4.6913,46.9515],[4.6928,46.9503],[4.6956,46.9497],[4.7003,46.9503],[4.7059,46.9539],[4.7083,46.9535],[4.7134,46.9562],[4.7136,46.9573],[4.7099,46.9598],[4.7128,46.9599],[4.7203,46.9581],[4.721,46.9588],[4.7199,46.9616],[4.7228,46.9602],[4.7237,46.9589],[4.7261,46.9602],[4.7262,46.9569],[4.7276,46.9555],[4.7302,46.9556],[4.7362,46.9524],[4.7339,46.946],[4.7303,46.9434],[4.7239,46.9441],[4.723,46.9434],[4.7212,46.9435],[4.7233,46.9473],[4.7251,46.9472],[4.7258,46.9477],[4.7247,46.9523],[4.7213,46.955],[4.7223,46.9552],[4.7228,46.957],[4.7239,46.9575],[4.7234,46.9586],[4.721,46.9574],[4.7204,46.9561],[4.7189,46.9561],[4.7188,46.9554],[4.7156,46.9533],[4.7162,46.9525],[4.7193,46.9528],[4.7178,46.951],[4.7142,46.9493],[4.7123,46.9497],[4.711,46.9486],[4.7075,46.9476],[4.7067,46.948],[4.7019,46.9469],[4.6947,46.9461],[4.6898,46.9477],[4.6879,46.9497]]]}},{"type":"Feature","properties":{"id":"appellation-puligny-montrachet","kind":"appellation","level":"village","name":"Puligny-Montrachet","region":"cote-de-beaune","village":"puligny-montrachet"},"geometry":{"type":"Polygon","coordinates":[[[4.7323,46.9544],[4.7344,46.9591],[4.7366,46.961],[4.737,46.96],[4.7408,46.9591],[4.7428,46.9602],[4.7457,46.9602],[4.7469,46.9593],[4.7457,46.9586],[4.7463,46.9579],[4.7486,46.9581],[4.7604,46.9553],[4.7571,46.9492],[4.7533,46.9499],[4.7519,46.9488],[4.7517,46.9473],[4.7493,46.9464],[4.7499,46.9446],[4.7488,46.9428],[4.7516,46.942],[4.7501,46.9394],[4.7459,46.9405],[4.7437,46.942],[4.7423,46.9418],[4.7424,46.9429],[4.7346,46.9459],[4.7385,46.9487],[4.7388,46.9494],[4.738,46.95],[4.7402,46.9532],[4.739,46.9537],[4.7368,46.9521],[4.7323,46.9544]],[[4.7439,46.9578],[4.7426,46.9581],[4.742,46.9567],[4.7438,46.9568],[4.7439,46.9578]]]}},{"type":"Feature","properties":{"id":"appellation-maranges","kind":"appellation","level":"village","name":"Maranges","region":"cote-de-beaune","village":null},"geometry":{"type":"Polygon","coordinates":[[[4.6482,46.9106],[4.6493,46.9157],[4.6519,46.917],[4.655,46.9162],[4.657,46.9172],[4.6583,46.9165],[4.6591,46.9136],[4.663,46.9124],[4.6688,46.9127],[4.6719,46.9112],[4.672,46.9069],[4.678,46.9039],[4.6803,46.9046],[4.6835,46.9028],[4.6819,46.9015],[4.6804,46.8974],[4.6789,46.896],[4.6648,46.9011],[4.6616,46.9041],[4.654,46.9062],[4.6535,46.9097],[4.6482,46.9106]],[[4.6537,46.9116],[4.6538,46.9108],[4.6553,46.9107],[4.6556,46.91],[4.6574,46.9102],[4.6569,46.9127],[4.6537,46.9116]]]}},{"type":"Feature","properties":{"id":"appellation-pernand-vergelesses","kind":"appellation","level":"village","name":"Pernand-Vergelesses","region":"cote-de-beaune","village":"pernand-vergelesses"},"geometry":{"type":"Polygon","coordinates":[[[4.8414,47.0819],[4.8467,47.0843],[4.8445,47.0875],[4.8453,47.0892],[4.845,47.0915],[4.8463,47.0911],[4.8499,47.0913],[4.8511,47.0872],[4.8529,47.0857],[4.8575,47.0866],[4.8592,47.0857],[4.8606,47.086],[4.8604,47.0888],[4.8627,47.089],[4.8669,47.0879],[4.8665,47.0866],[4.8624,47.0849],[4.8599,47.0829],[4.8592,47.0813],[4.8566,47.0795],[4.8531,47.0791],[4.8532,47.0807],[4.8501,47.0821],[4.8497,47.0832],[4.847,47.0828],[4.8491,47.079],[4.8523,47.078],[4.85,47.0752],[4.8497,47.0727],[4.8522,47.0677],[4.8535,47.0617],[4.847,47.0634],[4.8437,47.0632],[4.8432,47.0657],[4.8461,47.0692],[4.844,47.0701],[4.8441,47.0716],[4.8452,47.0729],[4.8458,47.0773],[4.8472,47.0779],[4.8441,47.0806],[4.8414,47.0819]],[[4.8525,47.0837],[4.8536,47.0824],[4.8551,47.0822],[4.8566,47.0833],[4.8581,47.0832],[4.8585,47.0838],[4.8535,47.0853],[4.8525,47.0837]]]}},{"type":"Feature","properties":{"id":"appellation-auxey-duresses","kind":"appellation","level":"village","name":"Auxey-Duresses","region":"cote-de-beaune","village":"auxey-duresses"},"geometry":{"type":"MultiPolygon","coordinates":[[[[4.726,46.9902],[4.7275,46.9918],[4.7357,46.9901],[4.7376,46.9912],[4.7436,46.9903],[4.7445,46.9909],[4.7433,46.9931],[4.7446,46.9922],[4.7501,46.9911],[4.7515,46.9899],[4.7548,46.9911],[4.7555,46.992],[4.7579,46.9914],[4.7589,46.9908],[4.7588,46.9889],[4.7622,46.9885],[4.7621,46.9878],[4.762,46.9871],[4.7605,46.9868],[4.7615,46.986],[4.7609,46.9852],[4.7579,46.9835],[4.7555,46.9808],[4.75,46.9794],[4.7473,46.9824],[4.75,46.9849],[4.7565,46.986],[4.7569,46.9874],[4.7525,46.987],[4.7519,46.9865],[4.7482,46.9874],[4.7432,46.9869],[4.7386,46.9876],[4.7382,46.9893],[4.7367,46.989],[4.7365,46.9881],[4.7353,46.988],[4.726,46.9902]]],[[[4.7007,46.9827],[4.7017,46.9835],[4.7101,46.9859],[4.7122,46.9881],[4.7142,46.9882],[4.7191,46.9869],[4.7127,46.9839],[4.7086,46.9811],[4.7036,46.9816],[4.7007,46.9827]]]]}},{"type":"Feature","properties":{"id":"appellation-chorey-les-beaune","kind":"appellation","level":"village","name":"Chorey-lès-Beaune","region":"cote-de-beaune","village":null},"geometry":{"type":"Polygon","coordinates":[[[4.8479,47.0534],[4.8512,47.058],[4.8609,47.0559],[4.8615,47.0566],[4.8605,47.0574],[4.8661,47.0629],[4.8707,47.0615],[4.8699,47.0601],[4.8719,47.0591],[4.8709,47.0578],[4.8721,47.0572],[4.8703,47.0547],[4.8675,47.0553],[4.8674,47.0564],[4.8643,47.0571],[4.8621,47.0538],[4.8621,47.0519],[4.8602,47.052],[4.8595,47.0507],[4.8597,47.0498],[4.8619,47.0495],[4.8614,47.0483],[4.8591,47.0484],[4.858,47.0464],[4.8564,47.046],[4.8579,47.0447],[4.8591,47.0451],[4.8602,47.0446],[4.8609,47.0439],[4.8598,47.0425],[4.8624,47.0418],[4.8621,47.0411],[4.8571,47.0407],[4.8512,47.0444],[4.8539,47.0489],[4.8519,47.0496],[4.8525,47.051],[4.8479,47.0534]]]}},{"type":"Feature","properties":{"id":"appellation-saint-romain","kind":"appellation","level":"village","name":"Saint-Romain","region":"cote-de-beaune","village":null},"geometry":{"type":"Polygon","coordinates":[[[4.712,46.9957],[4.7113,46.9991],[4.7136,46.9994],[4.715,47.002],[4.7142,47.003],[4.7165,47.0053],[4.716,47.0066],[4.7192,47.0062],[4.7227,47.0068],[4.724,47.0059],[4.7218,47.0029],[4.7222,47.0001],[4.7247,46.9975],[4.7273,46.9979],[4.7287,46.9943],[4.7277,46.9934],[4.7287,46.9927],[4.7261,46.9902],[4.7203,46.9943],[4.7184,46.9944],[4.718,46.9938],[4.7199,46.9924],[4.7191,46.9918],[4.72,46.9906],[4.7188,46.9896],[4.7181,46.9878],[4.7166,46.9875],[4.7137,46.9882],[4.712,46.988],[4.7109,46.99],[4.7122,46.9912],[4.7118,46.9927],[4.7131,46.9952],[4.712,46.9957]]]}},{"type":"Feature","properties":{"id":"appellation-monthelie","kind":"appellation","level":"village","name":"Monthélie","region":"cote-de-beaune","village":null},"geometry":{"type":"Polygon","coordinates":[[[4.7543,46.995],[4.7587,46.9964],[4.7609,47.0029],[4.7603,47.0047],[4.765,47.0046],[4.7658,47.0038],[4.7649,47.0018],[4.7662,46.9955],[4.7675,46.9955],[4.7685,46.9998],[4.7691,47.001],[4.7706,47.0013],[4.772,46.9992],[4.7717,46.9976],[4.7731,46.9971],[4.7741,46.9946],[4.776,46.9929],[4.7733,46.9903],[4.7699,46.989],[4.7627,46.9888],[4.7635,46.9901],[4.7626,46.991],[4.7613,46.9902],[4.761,46.9887],[4.7586,46.9888],[4.7587,46.9906],[4.7556,46.9919],[4.7554,46.9944],[4.7543,46.995]],[[4.7659,46.9925],[4.7672,46.9921],[4.7677,46.9935],[4.7666,46.9936],[4.7659,46.9925]]]}},{"type":"Feature","properties":{"id":"appellation-ladoix","kind":"appellation","level":"village","name":"Ladoix","region":"cote-de-beaune","village":null},"geometry":{"type":"Polygon","coordinates":[[[4.8682,47.0825],[4.8719,47.0841],[4.8742,47.0868],[4.8777,47.0872],[4.8806,47.0845],[4.8815,47.0848],[4.8816,47.0859],[4.8904,47.0831],[4.8951,47.0842],[4.8959,47.0852],[4.8977,47.0835],[4.8804,47.0754],[4.8776,47.073],[4.876,47.0734],[4.8779,47.0752],[4.8765,47.0765],[4.877,47.0779],[4.875,47.0791],[4.8725,47.0788],[4.8728,47.0803],[4.8713,47.0812],[4.8695,47.0791],[4.8682,47.0825]],[[4.8853,47.0794],[4.8859,47.0786],[4.887,47.0789],[4.8865,47.0799],[4.8853,47.0794]]]}},{"type":"Feature","properties":{"id":"appellation-blagny-ou-blagny-cote-de-beaune","kind":"appellation","level":"village","name":"Blagny","region":"cote-de-beaune","village":null},"geometry":{"type":"Polygon","coordinates":[[[4.7323,46.9544],[4.7343,46.959],[4.7358,46.9604],[4.739,46.9623],[4.7474,46.9645],[4.7486,46.9627],[4.747,46.9624],[4.7463,46.9611],[4.7478,46.9596],[4.7427,46.9602],[4.7421,46.9596],[4.743,46.9589],[4.7421,46.9575],[4.7411,46.9576],[4.7341,46.9539],[4.7323,46.9544]]]}},{"type":"Feature","properties":{"id":"grand-cru-corton","kind":"grand_cru","level":"grand-cru","name":"Corton","region":"cote-de-beaune","village":null},"geometry":{"type":"Polygon","coordinates":[[[4.8499,47.0745],[4.8524,47.078],[4.8558,47.079],[4.8568,47.0782],[4.8554,47.0761],[4.8554,47.0734],[4.8565,47.0727],[4.8586,47.0729],[4.8666,47.0782],[4.8677,47.08],[4.87,47.0798],[4.8703,47.0815],[4.8731,47.0804],[4.8728,47.0794],[4.8757,47.078],[4.8767,47.0768],[4.8721,47.0718],[4.8699,47.0711],[4.8685,47.0714],[4.8641,47.0695],[4.8612,47.0671],[4.8599,47.0672],[4.8589,47.0644],[4.8554,47.0663],[4.852,47.0695],[4.8499,47.0745]]]}},{"type":"Feature","properties":{"id":"grand-cru-corton-charlemagne","kind":"grand_cru","level":"grand-cru","name":"Corton-Charlemagne","region":"cote-de-beaune","village":"corton-charlemagne"},"geometry":{"type":"Polygon","coordinates":[[[4.8499,47.0745],[4.8524,47.078],[4.8558,47.079],[4.8568,47.0782],[4.8554,47.0761],[4.8554,47.0735],[4.8564,47.0727],[4.8585,47.0729],[4.8666,47.0782],[4.8677,47.08],[4.87,47.0798],[4.8703,47.0815],[4.8731,47.0804],[4.8702,47.0774],[4.8689,47.0779],[4.8673,47.0759],[4.8613,47.0731],[4.862,47.0718],[4.8592,47.0705],[4.8588,47.0681],[4.8529,47.0696],[4.8507,47.0716],[4.8499,47.0745]]]}},{"type":"Feature","properties":{"id":"grand-cru-batard-montrachet","kind":"grand_cru","level":"grand-cru","name":"Bâtard-Montrachet","region":"cote-de-beaune","village":null},"geometry":{"type":"Polygon","coordinates":[[[4.7368,46.9419],[4.7408,46.9472],[4.7419,46.9469],[4.7411,46.9451],[4.7423,46.9443],[4.74,46.9417],[4.7394,46.9412],[4.7368,46.9419]]]}},{"type":"Feature","properties":{"id":"grand-cru-montrachet","kind":"grand_cru","level":"grand-cru","name":"Montrachet","region":"cote-de-beaune","village":null},"geometry":{"type":"Polygon","coordinates":[[[4.7352,46.9425],[4.7395,46.9476],[4.7406,46.9471],[4.7367,46.942],[4.7352,46.9425]]]}},{"type":"Feature","properties":{"id":"grand-cru-chevalier-montrachet","kind":"grand_cru","level":"grand-cru","name":"Chevalier-Montrachet","region":"cote-de-beaune","village":null},"geometry":{"type":"Polygon","coordinates":[[[4.7346,46.9459],[4.7391,46.9493],[4.7401,46.949],[4.737,46.9447],[4.7346,46.9459]]]}},{"type":"Feature","properties":{"id":"grand-cru-bienvenues-batard-montrachet","kind":"grand_cru","level":"grand-cru","name":"Bienvenues-Bâtard-Montrachet","region":"cote-de-beaune","village":null},"geometry":{"type":"Polygon","coordinates":[[[4.7409,46.9452],[4.7419,46.9469],[4.7436,46.9464],[4.7423,46.9443],[4.7409,46.9452]]]}},{"type":"Feature","properties":{"id":"grand-cru-criots-batard-montrachet","kind":"grand_cru","level":"grand-cru","name":"Criots-Bâtard-Montrachet","region":"cote-de-beaune","village":null},"geometry":{"type":"Polygon","coordinates":[[[4.7362,46.9412],[4.7367,46.9419],[4.7394,46.9412],[4.7382,46.9406],[4.7362,46.9412]]]}},{"type":"Feature","properties":{"id":"appellation-mercurey","kind":"appellation","level":"village","name":"Mercurey","region":"cote-chalonnaise","village":null},"geometry":{"type":"Polygon","coordinates":[[[4.6898,46.8359],[4.6917,46.8372],[4.6935,46.837],[4.6934,46.8381],[4.6956,46.8403],[4.6967,46.8397],[4.6965,46.838],[4.6982,46.8373],[4.6997,46.8378],[4.7007,46.839],[4.7029,46.8389],[4.7029,46.8397],[4.7012,46.8401],[4.6972,46.843],[4.7005,46.8456],[4.7048,46.8449],[4.707,46.8484],[4.7069,46.8492],[4.7112,46.8519],[4.7122,46.8523],[4.7127,46.8519],[4.7102,46.8498],[4.7095,46.8469],[4.7105,46.8466],[4.7113,46.8478],[4.7125,46.8478],[4.7135,46.8475],[4.7139,46.8461],[4.7148,46.8459],[4.7198,46.8516],[4.7218,46.8513],[4.7229,46.8529],[4.7308,46.8551],[4.7357,46.8578],[4.7401,46.8592],[4.7381,46.8493],[4.7392,46.8467],[4.7381,46.845],[4.7388,46.8436],[4.7385,46.8418],[4.7414,46.8398],[4.7431,46.8402],[4.7474,46.839],[4.7466,46.8352],[4.7423,46.8349],[4.7404,46.8335],[4.7449,46.8309],[4.7454,46.8293],[4.7431,46.8292],[4.7406,46.8278],[4.7367,46.8287],[4.7316,46.8246],[4.725,46.8217],[4.7205,46.8206],[4.7185,46.8188],[4.7116,46.8162],[4.7107,46.8151],[4.7087,46.8151],[4.7027,46.812],[4.7,46.8146],[4.6968,46.8146],[4.6936,46.8157],[4.6932,46.8191],[4.6983,46.8194],[4.6994,46.8201],[4.7049,46.8194],[4.7076,46.8206],[4.709,46.8196],[4.7106,46.8199],[4.7122,46.823],[4.7117,46.8237],[4.7131,46.8252],[4.7115,46.8253],[4.7108,46.8264],[4.7112,46.8278],[4.7093,46.829],[4.7071,46.8292],[4.7069,46.8306],[4.7077,46.8321],[4.709,46.8322],[4.7113,46.8341],[4.7114,46.8354],[4.7095,46.8356],[4.7077,46.8367],[4.6936,46.8337],[4.6915,46.8341],[4.6898,46.8359]],[[4.7364,46.8319],[4.7363,46.831],[4.738,46.8309],[4.7382,46.832],[4.7364,46.8319]],[[4.7339,46.8471],[4.7344,46.8462],[4.7362,46.8472],[4.7353,46.8477],[4.7339,46.8471]],[[4.7239,46.8324],[4.7255,46.8309],[4.7267,46.8308],[4.7305,46.8285],[4.7347,46.8292],[4.734,46.8308],[4.7302,46.8316],[4.7297,46.8333],[4.7288,46.8337],[4.7271,46.8338],[4.7239,46.8324]],[[4.7316,46.8516],[4.7328,46.8507],[4.7341,46.8509],[4.7352,46.8526],[4.7345,46.8543],[4.7332,46.854],[4.7316,46.8516]],[[4.7212,46.8464],[4.7228,46.8433],[4.7247,46.8422],[4.7242,46.8405],[4.7307,46.839],[4.7342,46.8425],[4.7341,46.8432],[4.7288,46.845],[4.7279,46.8465],[4.7267,46.8462],[4.7237,46.8476],[4.7217,46.8474],[4.7212,46.8464]],[[4.729,46.8475],[4.7311,46.8469],[4.7329,46.8484],[4.7334,46.8498],[4.7314,46.851],[4.7303,46.8507],[4.7286,46.8483],[4.729,46.8475]],[[4.72,46.8392],[4.7209,46.8397],[4.72,46.8406],[4.7191,46.8397],[4.72,46.8392]],[[4.7135,46.837],[4.7139,46.8362],[4.7152,46.8366],[4.7173,46.8359],[4.7184,46.8367],[4.7175,46.8375],[4.7149,46.838],[4.7135,46.837]],[[4.7141,46.8453],[4.7141,46.8432],[4.7152,46.8431],[4.7152,46.8452],[4.7141,46.8453]],[[4.7141,46.8397],[4.7108,46.8396],[4.7111,46.8388],[4.7142,46.838],[4.7141,46.8397]],[[4.7052,46.8421],[4.7052,46.8414],[4.7069,46.8403],[4.7103,46.841],[4.7099,46.8418],[4.7079,46.8419],[4.7066,46.8429],[4.7052,46.8421]],[[4.6976,46.8185],[4.6964,46.8183],[4.6966,46.8169],[4.6977,46.8163],[4.6998,46.8164],[4.7,46.8172],[4.6976,46.8185]],[[4.6941,46.8371],[4.6938,46.8363],[4.6951,46.836],[4.6954,46.8369],[4.6941,46.8371]]]}},{"type":"Feature","properties":{"id":"appellation-rully","kind":"appellation","level":"village","name":"Rully","region":"cote-chalonnaise","village":"rully"},"geometry":{"type":"Polygon","coordinates":[[[4.7072,46.8558],[4.7108,46.8595],[4.7121,46.859],[4.7139,46.8594],[4.7136,46.8609],[4.7156,46.8627],[4.7143,46.8637],[4.715,46.8645],[4.7147,46.867],[4.7112,46.8685],[4.7156,46.8723],[4.7186,46.8767],[4.7209,46.8769],[4.7228,46.8757],[4.7262,46.8753],[4.7214,46.8689],[4.7207,46.8658],[4.7182,46.861],[4.7189,46.8601],[4.7209,46.8608],[4.7218,46.8627],[4.7268,46.8664],[4.7272,46.8704],[4.7286,46.8713],[4.7275,46.8725],[4.7289,46.8737],[4.7279,46.8753],[4.7318,46.88],[4.7337,46.8808],[4.7347,46.8807],[4.7354,46.8798],[4.7386,46.8803],[4.7435,46.8834],[4.7422,46.8853],[4.7455,46.8859],[4.7469,46.8871],[4.747,46.888],[4.7452,46.8885],[4.7435,46.8876],[4.7442,46.8891],[4.7427,46.8904],[4.7428,46.8912],[4.744,46.8917],[4.7442,46.8926],[4.7465,46.8925],[4.7489,46.8945],[4.7459,46.896],[4.745,46.8953],[4.745,46.8936],[4.7403,46.8942],[4.7415,46.896],[4.7436,46.8975],[4.7448,46.8994],[4.7506,46.8976],[4.7498,46.8944],[4.7497,46.8876],[4.7429,46.8786],[4.7409,46.877],[4.7389,46.8774],[4.7375,46.8764],[4.7375,46.8752],[4.7357,46.8741],[4.7363,46.8735],[4.7374,46.8739],[4.739,46.8734],[4.739,46.8726],[4.7402,46.872],[4.7392,46.8706],[4.738,46.8645],[4.7394,46.8634],[4.7422,46.866],[4.7422,46.8674],[4.7442,46.8676],[4.7443,46.8682],[4.7432,46.8686],[4.7447,46.8735],[4.7459,46.8733],[4.7452,46.8719],[4.7457,46.8713],[4.7468,46.8716],[4.7475,46.873],[4.7488,46.8725],[4.7475,46.8664],[4.7466,46.8662],[4.7449,46.8637],[4.7425,46.8619],[4.743,46.8607],[4.7357,46.8578],[4.7308,46.8551],[4.7234,46.853],[4.7189,46.8526],[4.7243,46.8556],[4.7234,46.8573],[4.7325,46.8637],[4.7343,46.867],[4.7333,46.8676],[4.7269,46.8634],[4.727,46.8627],[4.7224,46.8585],[4.7212,46.8585],[4.7201,46.8569],[4.7185,46.8577],[4.7149,46.8561],[4.714,46.855],[4.7103,46.8539],[4.7072,46.8558]],[[4.7401,46.8625],[4.7388,46.8629],[4.7381,46.8616],[4.74,46.8614],[4.7401,46.8625]]]}},{"type":"Feature","properties":{"id":"appellation-montagny","kind":"appellation","level":"village","name":"Montagny","region":"cote-chalonnaise","village":"montagny"},"geometry":{"type":"MultiPolygon","coordinates":[[[[4.6771,46.7148],[4.6785,46.7181],[4.6805,46.7183],[4.6851,46.7203],[4.6879,46.7205],[4.6908,46.7195],[4.6926,46.7213],[4.6944,46.7206],[4.6972,46.7211],[4.6942,46.7161],[4.6912,46.7156],[4.6876,46.7161],[4.6849,46.7154],[4.6834,46.7157],[4.6826,46.7133],[4.6802,46.715],[4.6771,46.7148]]],[[[4.6674,46.6889],[4.6693,46.6907],[4.6689,46.6922],[4.6699,46.694],[4.6722,46.6934],[4.6745,46.695],[4.6767,46.6951],[4.6778,46.6957],[4.6766,46.6969],[4.6744,46.697],[4.6709,46.6988],[4.6699,46.704],[4.6705,46.7047],[4.6691,46.7055],[4.6705,46.7066],[4.6699,46.7103],[4.6714,46.7129],[4.672,46.7118],[4.6769,46.7109],[4.6783,46.7096],[4.6806,46.7103],[4.6842,46.7097],[4.6866,46.7128],[4.6902,46.7124],[4.6896,46.7099],[4.6924,46.7091],[4.6893,46.7045],[4.6892,46.7026],[4.6901,46.7013],[4.6876,46.7019],[4.6868,46.7014],[4.6887,46.6999],[4.6905,46.6995],[4.6876,46.6959],[4.6883,46.6952],[4.6881,46.6927],[4.6862,46.6926],[4.6835,46.6872],[4.6806,46.6868],[4.682,46.6847],[4.6817,46.684],[4.6763,46.6846],[4.6745,46.6841],[4.6749,46.6822],[4.6821,46.6814],[4.6824,46.6799],[4.6757,46.6809],[4.6727,46.6797],[4.6711,46.6811],[4.6681,46.6808],[4.6674,46.6829],[4.6684,46.686],[4.6674,46.6889]],[[4.6736,46.6917],[4.6732,46.6886],[4.6748,46.6886],[4.6738,46.6866],[4.6744,46.686],[4.6812,46.6874],[4.6801,46.6883],[4.6804,46.6895],[4.6793,46.6903],[4.6765,46.6889],[4.6752,46.689],[4.6756,46.6914],[4.6746,46.692],[4.6736,46.6917]],[[4.6734,46.7065],[4.6778,46.704],[4.679,46.7047],[4.6788,46.7055],[4.676,46.7061],[4.6752,46.7071],[4.6734,46.7065]]],[[[4.6847,46.6842],[4.6848,46.6851],[4.6876,46.6853],[4.6877,46.6842],[4.6847,46.6842]]]]}},{"type":"Feature","properties":{"id":"appellation-givry","kind":"appellation","level":"village","name":"Givry","region":"cote-chalonnaise","village":null},"geometry":{"type":"MultiPolygon","coordinates":[[[[4.7079,46.78],[4.7087,46.7833],[4.7107,46.7823],[4.7125,46.7832],[4.7135,46.7846],[4.7152,46.7837],[4.7173,46.7838],[4.7179,46.7823],[4.7197,46.7824],[4.72,46.7811],[4.7186,46.7801],[4.7194,46.7792],[4.7175,46.7761],[4.7121,46.779],[4.7079,46.78]]],[[[4.7177,46.7759],[4.7197,46.7754],[4.7214,46.7757],[4.7207,46.7772],[4.7213,46.7787],[4.7238,46.7804],[4.7252,46.7795],[4.7291,46.7804],[4.7297,46.7826],[4.7285,46.7833],[4.73,46.7847],[4.7324,46.7889],[4.7306,46.7904],[4.7336,46.7922],[4.7362,46.7948],[4.7378,46.7943],[4.738,46.7932],[4.741,46.7921],[4.7407,46.7914],[4.7428,46.7895],[4.746,46.7889],[4.7474,46.7897],[4.7481,46.7915],[4.7467,46.7924],[4.7471,46.7951],[4.7484,46.7967],[4.7499,46.7966],[4.7508,46.7984],[4.7542,46.7979],[4.7549,46.7957],[4.7514,46.7894],[4.7479,46.7859],[4.7466,46.7856],[4.745,46.7861],[4.7439,46.7856],[4.7403,46.7862],[4.7383,46.7858],[4.7378,46.7849],[4.7407,46.7827],[4.739,46.7828],[4.738,46.7821],[4.7387,46.7805],[4.7326,46.7797],[4.7328,46.7791],[4.7348,46.7782],[4.7327,46.7768],[4.7345,46.7758],[4.734,46.775],[4.7347,46.774],[4.7316,46.7694],[4.7271,46.7716],[4.7272,46.7729],[4.7242,46.7739],[4.7213,46.7709],[4.7239,46.7689],[4.7281,46.7682],[4.7321,46.7662],[4.7373,46.7646],[4.7377,46.7641],[4.7342,46.7617],[4.7307,46.7633],[4.7253,46.7639],[4.7248,46.7648],[4.7203,46.767],[4.7155,46.7669],[4.7122,46.7681],[4.7157,46.7693],[4.7182,46.7739],[4.7177,46.7759]],[[4.7292,46.7794],[4.7301,46.7786],[4.7311,46.7797],[4.7301,46.7802],[4.7292,46.7794]],[[4.7224,46.7751],[4.7228,46.7744],[4.7244,46.7742],[4.7257,46.7764],[4.7247,46.7766],[4.7224,46.7751]]],[[[4.7366,46.775],[4.7374,46.7757],[4.7407,46.7745],[4.7396,46.773],[4.7384,46.7732],[4.7384,46.7739],[4.7366,46.775]]],[[[4.7244,46.7855],[4.7259,46.7859],[4.728,46.7856],[4.7271,46.7842],[4.7244,46.7855]]],[[[4.7079,46.7726],[4.7087,46.7755],[4.7117,46.7747],[4.7116,46.773],[4.7094,46.7728],[4.7107,46.7714],[4.7099,46.7706],[4.7079,46.7726]]]]}},{"type":"Feature","properties":{"id":"appellation-bouzeron","kind":"appellation","level":"village","name":"Bouzeron","region":"cote-chalonnaise","village":"bouzeron"},"geometry":{"type":"Polygon","coordinates":[[[4.7173,46.8836],[4.7189,46.8851],[4.7175,46.8861],[4.719,46.887],[4.7226,46.8937],[4.7226,46.895],[4.728,46.8968],[4.7299,46.8981],[4.7295,46.9001],[4.7307,46.9009],[4.7315,46.8998],[4.7325,46.8998],[4.7354,46.9032],[4.7376,46.9024],[4.7399,46.9035],[4.7403,46.903],[4.7369,46.8988],[4.738,46.8985],[4.7416,46.9007],[4.7425,46.9001],[4.7361,46.893],[4.7325,46.8912],[4.7312,46.8901],[4.7315,46.8893],[4.729,46.888],[4.7282,46.8867],[4.7268,46.8871],[4.7286,46.8898],[4.7275,46.8904],[4.7261,46.89],[4.7247,46.8876],[4.7264,46.8859],[4.7212,46.877],[4.7185,46.8767],[4.7183,46.8781],[4.7173,46.8787],[4.7189,46.8824],[4.7173,46.8836]],[[4.7304,46.8949],[4.7271,46.8925],[4.7291,46.8915],[4.7318,46.8945],[4.7304,46.8949]]]}},{"type":"Feature","properties":{"id":"appellation-saint-veran","kind":"appellation","level":"village","name":"Saint-Véran","region":"maconnais","village":"saint-veran"},"geometry":{"type":"MultiPolygon","coordinates":[[[[4.7701,46.3207],[4.7752,46.3224],[4.7808,46.3229],[4.7802,46.322],[4.7819,46.3204],[4.7814,46.3152],[4.7805,46.3151],[4.7778,46.3169],[4.7714,46.3172],[4.771,46.319],[4.7718,46.3196],[4.7701,46.3207]]],[[[4.7511,46.2509],[4.7523,46.2517],[4.7552,46.2519],[4.7555,46.254],[4.757,46.2543],[4.759,46.2532],[4.7652,46.2515],[4.7647,46.2472],[4.7634,46.2474],[4.763,46.2483],[4.7599,46.2502],[4.7587,46.2496],[4.7607,46.2475],[4.7575,46.2481],[4.7563,46.2492],[4.7511,46.2509]]],[[[4.7527,46.3235],[4.7549,46.3284],[4.755,46.3306],[4.7542,46.3319],[4.7548,46.3324],[4.7592,46.3323],[4.7575,46.3292],[4.7578,46.3281],[4.7637,46.3272],[4.7618,46.3247],[4.7626,46.3219],[4.7622,46.3202],[4.7611,46.3194],[4.7614,46.3186],[4.7595,46.3176],[4.7581,46.3192],[4.7537,46.322],[4.7536,46.3232],[4.7527,46.3235]]],[[[4.7181,46.3206],[4.7185,46.3217],[4.7204,46.3225],[4.7194,46.3237],[4.7215,46.3243],[4.7287,46.324],[4.7292,46.3215],[4.7328,46.3214],[4.7346,46.325],[4.7355,46.3241],[4.7354,46.3207],[4.7363,46.3197],[4.7361,46.3189],[4.7386,46.3184],[4.7404,46.3191],[4.743,46.3174],[4.7442,46.3154],[4.7457,46.3154],[4.7475,46.3141],[4.7493,46.3106],[4.747,46.3103],[4.747,46.3091],[4.7486,46.3087],[4.7502,46.3091],[4.7509,46.3085],[4.7518,46.3093],[4.7529,46.3091],[4.7555,46.304],[4.755,46.3027],[4.7539,46.3028],[4.7454,46.3049],[4.7429,46.3034],[4.7407,46.3032],[4.7405,46.302],[4.7429,46.3021],[4.7452,46.3011],[4.7503,46.3015],[4.7541,46.2989],[4.7579,46.2986],[4.7573,46.2963],[4.7523,46.296],[4.7517,46.2949],[4.7485,46.2944],[4.7431,46.2952],[4.7429,46.2978],[4.742,46.2982],[4.7405,46.2976],[4.7399,46.3002],[4.7346,46.301],[4.7342,46.3019],[4.7327,46.3022],[4.7276,46.3057],[4.7282,46.3069],[4.7266,46.3084],[4.7267,46.3095],[4.7305,46.311],[4.7239,46.3181],[4.7252,46.319],[4.7251,46.3198],[4.7222,46.3209],[4.7181,46.3206]],[[4.7378,46.3064],[4.7391,46.3062],[4.7394,46.3071],[4.7378,46.3074],[4.7378,46.3064]],[[4.7354,46.3047],[4.7359,46.304],[4.7379,46.3042],[4.7363,46.3053],[4.7354,46.3047]],[[4.7326,46.3083],[4.7337,46.3077],[4.7343,46.3087],[4.7331,46.3091],[4.7326,46.3083]]],[[[4.736,46.342],[4.7364,46.3432],[4.7391,46.3427],[4.7445,46.3429],[4.7448,46.342],[4.7468,46.3421],[4.7483,46.3411],[4.7531,46.3424],[4.7546,46.3418],[4.7581,46.3416],[4.7584,46.3406],[4.7514,46.3398],[4.7518,46.3382],[4.7539,46.3382],[4.7541,46.334],[4.7506,46.3324],[4.7466,46.3329],[4.7455,46.3349],[4.7464,46.3356],[4.7454,46.3361],[4.7449,46.339],[4.7424,46.34],[4.7412,46.3397],[4.7409,46.3388],[4.7429,46.3388],[4.7436,46.3372],[4.7432,46.3329],[4.7421,46.3319],[4.7361,46.3334],[4.7367,46.3366],[4.7397,46.3374],[4.736,46.342]]],[[[4.7472,46.3257],[4.7473,46.3297],[4.7491,46.3296],[4.7472,46.3257]]],[[[4.7128,46.284],[4.713,46.2853],[4.7148,46.2857],[4.7148,46.2869],[4.7165,46.2874],[4.7177,46.2872],[4.7176,46.2865],[4.7185,46.2857],[4.7196,46.2863],[4.7215,46.2855],[4.729,46.2857],[4.7286,46.2838],[4.7294,46.2816],[4.7313,46.281],[4.7307,46.2758],[4.7331,46.2732],[4.7314,46.2738],[4.7296,46.2733],[4.731,46.2702],[4.732,46.2696],[4.7347,46.2699],[4.7377,46.2692],[4.7385,46.2697],[4.7382,46.2711],[4.7399,46.271],[4.7418,46.2729],[4.7415,46.2701],[4.7378,46.2678],[4.7345,46.2668],[4.7321,46.2667],[4.7307,46.2674],[4.7289,46.269],[4.7288,46.2702],[4.7276,46.2695],[4.7279,46.2678],[4.726,46.2673],[4.7243,46.2682],[4.7236,46.2699],[4.7224,46.2697],[4.7225,46.2683],[4.7234,46.2679],[4.7226,46.2658],[4.7235,46.2646],[4.7245,46.2646],[4.7274,46.2599],[4.7285,46.2557],[4.7283,46.2532],[4.7269,46.2531],[4.7261,46.254],[4.7193,46.2565],[4.7199,46.258],[4.718,46.2622],[4.7222,46.2643],[4.7197,46.2649],[4.7215,46.2672],[4.7195,46.2693],[4.7189,46.2724],[4.7201,46.2741],[4.7209,46.2718],[4.7221,46.271],[4.723,46.2712],[4.7227,46.2753],[4.7224,46.2766],[4.7207,46.2768],[4.7199,46.2784],[4.7187,46.2785],[4.7157,46.2802],[4.7128,46.284]]],[[[4.7256,46.266],[4.7273,46.2665],[4.7275,46.2658],[4.7261,46.2653],[4.7256,46.266]]],[[[4.7359,46.3262],[4.7382,46.326],[4.7392,46.3245],[4.7404,46.3245],[4.7408,46.3208],[4.7359,46.3262]]]]}},{"type":"Feature","properties":{"id":"appellation-pouilly-fuisse","kind":"appellation","level":"village","name":"Pouilly-Fuissé","region":"maconnais","village":"pouilly-fuisse"},"geometry":{"type":"MultiPolygon","coordinates":[[[[4.7118,46.2928],[4.7133,46.2944],[4.7157,46.2953],[4.7178,46.2945],[4.7192,46.2954],[4.7182,46.297],[4.716,46.2974],[4.7172,46.2981],[4.7199,46.2974],[4.7236,46.2995],[4.7235,46.3006],[4.7243,46.3],[4.7257,46.3002],[4.7254,46.3029],[4.7275,46.3058],[4.7345,46.3011],[4.7394,46.3003],[4.7404,46.2974],[4.7429,46.2983],[4.7435,46.2952],[4.7481,46.2944],[4.7544,46.2949],[4.7553,46.2943],[4.759,46.2954],[4.7575,46.2932],[4.7582,46.292],[4.7536,46.2884],[4.7547,46.2877],[4.7566,46.2881],[4.7574,46.2877],[4.7571,46.2857],[4.7585,46.2851],[4.7566,46.2822],[4.7586,46.2789],[4.7563,46.2783],[4.756,46.2763],[4.7548,46.2758],[4.7543,46.2744],[4.7535,46.2752],[4.7526,46.2746],[4.7531,46.2739],[4.7541,46.2741],[4.7565,46.2663],[4.7706,46.2629],[4.768,46.2561],[4.7656,46.2548],[4.7648,46.2529],[4.7603,46.2529],[4.7562,46.2546],[4.7555,46.2584],[4.7563,46.2613],[4.7547,46.2639],[4.7536,46.2642],[4.7531,46.2663],[4.749,46.2675],[4.746,46.267],[4.7455,46.2684],[4.7445,46.2689],[4.7424,46.2686],[4.7414,46.2701],[4.7413,46.271],[4.7424,46.2725],[4.7412,46.2748],[4.7427,46.2759],[4.745,46.2758],[4.7451,46.2739],[4.7459,46.2735],[4.7492,46.2734],[4.7499,46.2745],[4.7515,46.2748],[4.7509,46.2758],[4.7479,46.2764],[4.7476,46.2774],[4.7454,46.2773],[4.744,46.2783],[4.746,46.2785],[4.7529,46.282],[4.7542,46.2842],[4.7541,46.2855],[4.7519,46.2851],[4.7514,46.2835],[4.7486,46.2831],[4.747,46.2814],[4.7427,46.2792],[4.7422,46.2778],[4.7401,46.2773],[4.7395,46.2765],[4.737,46.277],[4.7357,46.2764],[4.7354,46.2772],[4.7342,46.2773],[4.732,46.2766],[4.7309,46.2752],[4.7318,46.2834],[4.73,46.2862],[4.7357,46.2868],[4.7364,46.2885],[4.7359,46.2896],[4.7344,46.2897],[4.7337,46.2909],[4.7317,46.2914],[4.732,46.2927],[4.7314,46.2932],[4.7282,46.2931],[4.7249,46.291],[4.721,46.2903],[4.7193,46.2916],[4.72,46.2928],[4.7187,46.2937],[4.7162,46.2929],[4.7142,46.2914],[4.7144,46.2902],[4.7138,46.2913],[4.712,46.2917],[4.7118,46.2928]],[[4.7585,46.2608],[4.7586,46.2596],[4.7606,46.2597],[4.7604,46.2613],[4.7585,46.2608]],[[4.7529,46.2936],[4.7531,46.2927],[4.7549,46.2931],[4.7545,46.2939],[4.7529,46.2936]],[[4.7421,46.2894],[4.7441,46.2893],[4.7446,46.2904],[4.7421,46.2904],[4.7421,46.2894]],[[4.7268,46.2946],[4.7301,46.2943],[4.7311,46.2956],[4.7271,46.2954],[4.7268,46.2946]],[[4.7249,46.2982],[4.7262,46.298],[4.7266,46.299],[4.725,46.2991],[4.7249,46.2982]],[[4.7228,46.2975],[4.7241,46.2961],[4.7252,46.2962],[4.7246,46.2979],[4.7228,46.2975]]],[[[4.705,46.318],[4.7058,46.319],[4.7078,46.3193],[4.7075,46.3202],[4.709,46.3206],[4.7091,46.3215],[4.7107,46.322],[4.7106,46.3227],[4.7127,46.3228],[4.7133,46.3236],[4.7152,46.3237],[4.7168,46.3229],[4.718,46.3233],[4.719,46.3222],[4.7185,46.3208],[4.7223,46.3209],[4.725,46.3199],[4.7252,46.3191],[4.722,46.3193],[4.7191,46.3188],[4.7147,46.3162],[4.7145,46.3141],[4.7156,46.3132],[4.7204,46.3118],[4.7211,46.3123],[4.721,46.3146],[4.726,46.3128],[4.7283,46.3129],[4.7299,46.3106],[4.727,46.3097],[4.7264,46.3086],[4.7249,46.3085],[4.7249,46.3076],[4.7271,46.3069],[4.7254,46.3068],[4.7246,46.3059],[4.7225,46.3059],[4.7171,46.3002],[4.7138,46.301],[4.7128,46.2991],[4.7117,46.2992],[4.7118,46.3006],[4.7105,46.3015],[4.7088,46.3018],[4.7089,46.3029],[4.7105,46.3028],[4.7113,46.3038],[4.7104,46.3043],[4.7105,46.3054],[4.7086,46.3057],[4.7094,46.3065],[4.7079,46.3086],[4.7085,46.3102],[4.7076,46.3105],[4.7061,46.3096],[4.7054,46.3098],[4.7066,46.3157],[4.705,46.318]],[[4.721,46.3116],[4.7229,46.3089],[4.7245,46.3094],[4.722,46.3119],[4.721,46.3116]],[[4.7117,46.306],[4.7119,46.3048],[4.7141,46.3041],[4.715,46.305],[4.718,46.3059],[4.717,46.3068],[4.7117,46.306]],[[4.7114,46.3209],[4.7123,46.3185],[4.7134,46.3188],[4.7153,46.3198],[4.7157,46.321],[4.7129,46.3222],[4.7114,46.3209]]],[[[4.704,46.3016],[4.7061,46.3021],[4.7063,46.3013],[4.7042,46.3013],[4.704,46.3016]]]]}},{"type":"Feature","properties":{"id":"appellation-vire-clesse","kind":"appellation","level":"village","name":"Viré-Clessé","region":"maconnais","village":"vire-clesse"},"geometry":{"type":"MultiPolygon","coordinates":[[[[4.8027,46.403],[4.8032,46.4052],[4.8049,46.407],[4.807,46.4061],[4.8086,46.407],[4.8095,46.4094],[4.807,46.4101],[4.8081,46.4111],[4.8104,46.4163],[4.8126,46.4179],[4.8137,46.4175],[4.8129,46.4153],[4.8168,46.4147],[4.8181,46.4175],[4.8155,46.4189],[4.8171,46.4197],[4.8185,46.4189],[4.8176,46.4183],[4.8184,46.4177],[4.8201,46.4193],[4.8179,46.4214],[4.8189,46.422],[4.8226,46.4207],[4.8249,46.4234],[4.8268,46.4235],[4.8262,46.4266],[4.8254,46.427],[4.8229,46.4253],[4.822,46.4234],[4.8193,46.4227],[4.8181,46.4234],[4.8147,46.422],[4.8137,46.4228],[4.8162,46.4292],[4.8172,46.43],[4.8224,46.4276],[4.8251,46.429],[4.8254,46.4298],[4.8236,46.4306],[4.8264,46.4349],[4.8292,46.4369],[4.8305,46.4389],[4.8307,46.4404],[4.8328,46.4398],[4.834,46.4405],[4.8376,46.4405],[4.8362,46.4418],[4.8307,46.4415],[4.8316,46.4447],[4.8329,46.4452],[4.8347,46.4473],[4.8325,46.4495],[4.8347,46.4534],[4.8325,46.4548],[4.8352,46.4586],[4.8387,46.4612],[4.8413,46.46],[4.842,46.4611],[4.8433,46.4611],[4.8448,46.4619],[4.8449,46.4643],[4.8475,46.4683],[4.846,46.4719],[4.8483,46.472],[4.8493,46.4698],[4.8514,46.4685],[4.8493,46.4652],[4.8494,46.4617],[4.8512,46.4615],[4.8512,46.459],[4.8558,46.4593],[4.8556,46.4573],[4.8535,46.4573],[4.8528,46.4554],[4.8537,46.4546],[4.8566,46.4548],[4.8565,46.4508],[4.8525,46.4516],[4.8515,46.4506],[4.8518,46.4491],[4.8509,46.4486],[4.8497,46.449],[4.8492,46.4502],[4.8504,46.455],[4.8487,46.4558],[4.8476,46.4544],[4.8463,46.4544],[4.8457,46.4536],[4.8482,46.4525],[4.8474,46.4502],[4.8441,46.4504],[4.8441,46.4513],[4.843,46.4518],[4.8416,46.4513],[4.8433,46.4488],[4.8464,46.4488],[4.8465,46.4473],[4.8492,46.4464],[4.8488,46.4455],[4.8476,46.4455],[4.8465,46.4442],[4.847,46.4419],[4.8419,46.4421],[4.8414,46.4404],[4.8385,46.4402],[4.8376,46.4384],[4.8366,46.4383],[4.8362,46.4375],[4.8345,46.4374],[4.8343,46.436],[4.835,46.4356],[4.8367,46.4367],[4.8376,46.4365],[4.8399,46.4373],[4.8419,46.4388],[4.843,46.437],[4.8416,46.4371],[4.84,46.4361],[4.8399,46.4327],[4.836,46.43],[4.8327,46.4288],[4.8332,46.4273],[4.8316,46.4258],[4.8314,46.4228],[4.8294,46.4195],[4.8298,46.4189],[4.828,46.4179],[4.8282,46.4168],[4.8234,46.4109],[4.8223,46.4108],[4.8208,46.409],[4.8197,46.4094],[4.8197,46.4104],[4.8182,46.4108],[4.8179,46.4119],[4.8164,46.4114],[4.814,46.4116],[4.8112,46.4062],[4.809,46.404],[4.8079,46.404],[4.806,46.402],[4.8027,46.403]],[[4.8452,46.4474],[4.8446,46.4461],[4.846,46.4459],[4.8462,46.4472],[4.8452,46.4474]],[[4.8415,46.4451],[4.8415,46.443],[4.8425,46.4428],[4.8445,46.4451],[4.8415,46.4451]],[[4.8405,46.4479],[4.8414,46.447],[4.8427,46.448],[4.8416,46.4488],[4.8405,46.4479]],[[4.8368,46.4535],[4.8364,46.45],[4.8377,46.4502],[4.8394,46.4523],[4.8398,46.4541],[4.8368,46.4535]],[[4.8279,46.4313],[4.829,46.4296],[4.8299,46.4294],[4.8332,46.4312],[4.8339,46.4325],[4.8308,46.434],[4.8302,46.4326],[4.829,46.4324],[4.8279,46.4313]],[[4.8317,46.437],[4.8331,46.4369],[4.8334,46.4379],[4.8314,46.4381],[4.8317,46.437]]],[[[4.8238,46.438],[4.826,46.4395],[4.8273,46.4382],[4.8256,46.4365],[4.8238,46.438]]]]}},{"type":"Feature","properties":{"id":"appellation-pouilly-vinzelles","kind":"appellation","level":"village","name":"Pouilly-Vinzelles","region":"maconnais","village":null},"geometry":{"type":"Polygon","coordinates":[[[4.7572,46.2662],[4.7583,46.2699],[4.761,46.2735],[4.7595,46.2752],[4.7599,46.2756],[4.7707,46.2752],[4.7694,46.2734],[4.7667,46.2734],[4.7662,46.2725],[4.7673,46.271],[4.7688,46.2708],[4.7697,46.266],[4.7707,46.2655],[4.7685,46.2639],[4.7572,46.2662]],[[4.7614,46.27],[4.7607,46.269],[4.7626,46.2691],[4.7626,46.27],[4.7614,46.27]]]}},{"type":"Feature","properties":{"id":"appellation-pouilly-loche","kind":"appellation","level":"village","name":"Pouilly-Loché","region":"maconnais","village":null},"geometry":{"type":"Polygon","coordinates":[[[4.7581,46.2803],[4.761,46.2808],[4.7603,46.283],[4.7649,46.2828],[4.7645,46.2818],[4.7655,46.2813],[4.766,46.2777],[4.7687,46.2776],[4.7694,46.2755],[4.7628,46.2754],[4.7589,46.2765],[4.7599,46.2792],[4.7584,46.2796],[4.7581,46.2803]]]}}]}